{"type":"FeatureCollection","features":[{"type":"Feature","properties":{"name":"Deçan"},"geometry":{"type":"Polygon","coordinates":[[[20.1119623,42.6553877],[20.1102113,42.6482391],[20.0950724,42.6408455],[20.0914139,42.6314206],[20.0774766,42.623405],[20.0725156,42.6075981],[20.0881971,42.5817427],[20.1004396,42.5798349],[20.1173797,42.5694825],[20.1117513,42.5655961],[20.1112907,42.5588491],[20.1060435,42.5535348],[20.1152356,42.5438063],[20.1108226,42.5402231],[20.1212193,42.5411078],[20.14702,42.5575206],[20.1563695,42.5567655],[20.1734869,42.5467733],[20.1538504,42.5337312],[20.1618168,42.5257144],[20.1836822,42.5306018],[20.2103346,42.5210283],[20.2346842,42.5201432],[20.2399634,42.5141103],[20.2374674,42.512024],[20.2498023,42.5091517],[20.258111,42.5018947],[20.2758209,42.5038983],[20.2836913,42.5010526],[20.2891479,42.4947972],[20.2993398,42.4993709],[20.3042318,42.4871402],[20.30813,42.484691],[20.3157495,42.4871022],[20.3228273,42.4748682],[20.3363536,42.4760624],[20.3536959,42.4847241],[20.3592548,42.4711492],[20.3710072,42.4808065],[20.3767853,42.4800146],[20.3755943,42.4846308],[20.3852327,42.4846582],[20.3829644,42.4877306],[20.3858158,42.4887436],[20.3964764,42.4884848],[20.398546,42.4943157],[20.3941926,42.4958571],[20.395291,42.5000447],[20.3878121,42.5083133],[20.4082229,42.5206341],[20.4032909,42.5265305],[20.4081009,42.5342031],[20.4443839,42.5409018],[20.4508515,42.547738],[20.442656,42.5592293],[20.4283828,42.5618599],[20.4215438,42.5601534],[20.4111812,42.5636249],[20.3714636,42.5512671],[20.3521122,42.5559416],[20.3502442,42.5630169],[20.3608627,42.5674614],[20.3562898,42.572422],[20.3418722,42.570844],[20.3381964,42.5785223],[20.3409243,42.5808378],[20.3364257,42.5816493],[20.3370245,42.5869588],[20.344393,42.590822],[20.3278662,42.6028322],[20.3213244,42.6010992],[20.3121992,42.6121638],[20.3064142,42.6102137],[20.3051862,42.6048709],[20.3080654,42.6068337],[20.3076069,42.6040805],[20.3008352,42.6029224],[20.2969973,42.5986591],[20.2928024,42.5997607],[20.285135,42.5918657],[20.2537364,42.6049448],[20.208805,42.6087016],[20.2046728,42.6140213],[20.2073544,42.6162009],[20.2034777,42.6237381],[20.1872089,42.6284304],[20.1904315,42.6428183],[20.1985402,42.6520242],[20.173678,42.6483023],[20.1644311,42.6532278],[20.1546803,42.6516793],[20.1347452,42.6548389],[20.1189471,42.6630851],[20.1119623,42.6553877]]]}},{"type":"Feature","properties":{"name":"Dragash"},"geometry":{"type":"Polygon","coordinates":[[[20.5629444,42.1059461],[20.5678519,42.0983206],[20.5545676,42.0828449],[20.5594859,42.0786706],[20.5579235,42.0752839],[20.5701265,42.0588979],[20.5762071,42.0579395],[20.5949811,42.0431147],[20.5973677,42.0197313],[20.601867,42.0162527],[20.611908,41.9854412],[20.621883,41.9781836],[20.6253013,41.9698924],[20.6214183,41.9460385],[20.6171194,41.939122],[20.6052566,41.9288258],[20.5905141,41.9268578],[20.5854008,41.9184564],[20.5757245,41.9179644],[20.5934892,41.8843374],[20.5943514,41.8772028],[20.6188675,41.8577634],[20.6321583,41.8610771],[20.6485435,41.8745276],[20.6706881,41.8734516],[20.6779663,41.8685189],[20.6834745,41.857732],[20.7059181,41.8647779],[20.7277048,41.8643258],[20.7358139,41.8770675],[20.740869,41.8932621],[20.7501197,41.8949117],[20.7556713,41.9061404],[20.7765176,41.9188161],[20.770449,41.9245388],[20.7729008,41.9268342],[20.756633,41.9444528],[20.7671382,41.9567851],[20.7661111,41.9633333],[20.7498004,41.9857564],[20.7510021,42.0089749],[20.7650189,42.0418435],[20.7599285,42.05271],[20.7859824,42.0711397],[20.7844082,42.0783362],[20.7898009,42.0812554],[20.779233,42.1351847],[20.770453,42.1441454],[20.7662989,42.1539253],[20.7494007,42.1453994],[20.7477035,42.1415548],[20.7387659,42.14026],[20.7382168,42.1435466],[20.7298975,42.1464908],[20.7129952,42.1446014],[20.7100034,42.1520408],[20.7065864,42.153282],[20.6919518,42.1501591],[20.6797035,42.1548117],[20.6669587,42.1551678],[20.6571189,42.1502861],[20.6410329,42.1514816],[20.63724,42.1473368],[20.6217252,42.1432426],[20.5987479,42.1254266],[20.5770848,42.1203423],[20.5629444,42.1059461]]]}},{"type":"Feature","properties":{"name":"Ferizaj"},"geometry":{"type":"Polygon","coordinates":[[[21.1118968,42.2873317],[21.1325335,42.2956909],[21.1432845,42.2866774],[21.1530484,42.2866987],[21.1591082,42.2886109],[21.1677432,42.2993328],[21.1779302,42.3032473],[21.1916304,42.2902197],[21.1982065,42.2919655],[21.1974033,42.2947444],[21.2037179,42.2947633],[21.2029902,42.2998564],[21.2091459,42.3013884],[21.2057915,42.3101898],[21.2374175,42.3184596],[21.2525735,42.3284385],[21.2573102,42.3354909],[21.2445949,42.3437152],[21.250012,42.3532422],[21.251068,42.3660615],[21.2603787,42.3649414],[21.2623167,42.367968],[21.2870234,42.3731108],[21.30769,42.36895],[21.3106955,42.3731845],[21.3103248,42.3807316],[21.2981345,42.3922371],[21.3092733,42.4179291],[21.307715,42.420615],[21.2863344,42.4328314],[21.2862636,42.4390212],[21.2764109,42.4512945],[21.2592234,42.4443938],[21.2493883,42.4522018],[21.2471527,42.4582631],[21.2374478,42.4588422],[21.2250581,42.4646003],[21.1924413,42.4633794],[21.1800236,42.4558693],[21.1764632,42.4604489],[21.1617352,42.4613536],[21.1614084,42.455317],[21.1489852,42.4561192],[21.1450198,42.4525429],[21.1383376,42.4573668],[21.1381613,42.4608942],[21.1248023,42.4563109],[21.1201315,42.4511384],[21.1102968,42.4492891],[21.1163539,42.4422775],[21.1124317,42.4352724],[21.1026668,42.4344488],[21.1000869,42.4308479],[21.0954958,42.431077],[21.0900729,42.4234268],[21.0830313,42.4236013],[21.0859141,42.4207472],[21.0826514,42.4171707],[21.067993,42.4162084],[21.0672866,42.4050124],[21.076691,42.3972329],[21.0434726,42.3885187],[21.0420032,42.382731],[21.03812,42.3806032],[21.0119883,42.3858685],[21.0061889,42.3831814],[20.9946222,42.3891823],[20.9906518,42.3858338],[20.9812495,42.3861209],[20.9736233,42.374345],[20.9601003,42.3756843],[20.9709381,42.3642185],[20.9719722,42.3489744],[20.9768404,42.3393483],[20.9746963,42.3336923],[20.9795692,42.3286213],[20.9782499,42.3184292],[20.9838275,42.3089864],[21.0061601,42.3124219],[21.0357182,42.2984151],[21.0442415,42.314314],[21.0410391,42.3203563],[21.0472844,42.3326101],[21.0633556,42.3281676],[21.0683333,42.3177111],[21.0737277,42.3162411],[21.0758239,42.3117067],[21.0952653,42.3056063],[21.1062141,42.2887442],[21.1118968,42.2873317]]]}},{"type":"Feature","properties":{"name":"Fushë Kosovë"},"geometry":{"type":"Polygon","coordinates":[[[20.9702891,42.6486255],[20.9696769,42.6443442],[20.9863422,42.6307776],[20.9793609,42.6195445],[20.9710878,42.6135293],[20.9736135,42.605457],[20.9652905,42.5995],[20.9792285,42.5966811],[20.9805699,42.5796024],[20.9771115,42.570171],[20.9893191,42.5727545],[20.9951233,42.5773129],[21.0231095,42.581572],[21.0213589,42.5852832],[21.0299793,42.5891965],[21.041207,42.5862039],[21.0484261,42.5877531],[21.0490847,42.5832029],[21.0587333,42.5890118],[21.0554843,42.5952026],[21.0669159,42.5965469],[21.0903971,42.5907855],[21.1006966,42.5697222],[21.1073962,42.5714614],[21.104954,42.57631],[21.1071459,42.580021],[21.1012448,42.5806679],[21.0995944,42.5841056],[21.1012385,42.5951216],[21.1045228,42.5945295],[21.1038138,42.5971841],[21.1155302,42.6103394],[21.1126908,42.617811],[21.1046552,42.6147816],[21.0993659,42.619653],[21.0982253,42.632836],[21.1059549,42.6361558],[21.1038915,42.6405194],[21.1095074,42.6371165],[21.1137833,42.6386325],[21.1088551,42.6468255],[21.1234359,42.6523612],[21.1208951,42.6604287],[21.0903339,42.6596946],[21.0911899,42.6561539],[21.0879026,42.6557898],[21.0875216,42.6524282],[21.0766429,42.6551923],[21.0774294,42.6518953],[21.0729697,42.6474849],[21.0727282,42.6574137],[21.0659647,42.6582075],[21.0575899,42.6551384],[21.054215,42.6478465],[21.0491369,42.6469329],[21.0461171,42.6501818],[21.022638,42.6511139],[21.0195561,42.6602368],[21.0112105,42.6608558],[21.0091674,42.6667511],[21.0062816,42.6661338],[21.0048111,42.6603488],[20.9976551,42.6570555],[21.0018805,42.6517361],[20.9963725,42.6538878],[20.9934652,42.6512178],[20.9702891,42.6486255]]]}},{"type":"Feature","properties":{"name":"Gjakovë"},"geometry":{"type":"Polygon","coordinates":[[[20.5388797,42.5197331],[20.5338497,42.5238303],[20.5379709,42.5259125],[20.5315722,42.5264252],[20.5332246,42.5301361],[20.525057,42.5343426],[20.5272208,42.5402337],[20.5207492,42.540125],[20.5200223,42.5442789],[20.506957,42.5474485],[20.505741,42.5521553],[20.4957034,42.5513011],[20.4923277,42.5564984],[20.488021,42.5566695],[20.4872883,42.5609491],[20.4683217,42.5629953],[20.4482732,42.5592803],[20.4451005,42.5574873],[20.4508515,42.547738],[20.4451992,42.5414357],[20.4081009,42.5342031],[20.4032909,42.5265305],[20.4082229,42.5206341],[20.388304,42.5096204],[20.3875468,42.5063113],[20.395291,42.5000447],[20.3941926,42.4958571],[20.398546,42.4943157],[20.3964764,42.4884848],[20.3858158,42.4887436],[20.3829644,42.4877306],[20.3852327,42.4846582],[20.3755943,42.4846308],[20.3767853,42.4800146],[20.3710072,42.4808065],[20.3592548,42.4711492],[20.3538575,42.4846563],[20.3415901,42.4803902],[20.3356798,42.4759076],[20.3373264,42.4731428],[20.3265582,42.4683068],[20.3359097,42.463586],[20.3383712,42.4564447],[20.3434513,42.453218],[20.324718,42.4457671],[20.3137834,42.4630503],[20.312298,42.4506576],[20.2996821,42.4587922],[20.2897739,42.4558322],[20.2723638,42.4592196],[20.2682774,42.4661335],[20.2653086,42.464118],[20.2543303,42.4671292],[20.253246,42.4706248],[20.2468564,42.4704951],[20.2436903,42.4746479],[20.2356132,42.4739743],[20.2276189,42.4818734],[20.2186284,42.481944],[20.2147557,42.4872914],[20.2017837,42.4930746],[20.1974089,42.5068188],[20.1992216,42.5129213],[20.1665232,42.5066941],[20.1683279,42.5015094],[20.1660421,42.4986634],[20.1805833,42.4864711],[20.1826853,42.4733095],[20.1967815,42.4625639],[20.1923252,42.4566461],[20.1932134,42.4524045],[20.2079557,42.4444752],[20.2123031,42.4371243],[20.219113,42.4355788],[20.2266649,42.4238418],[20.2260797,42.4144048],[20.2137191,42.4093589],[20.2079514,42.4009184],[20.2395817,42.3807757],[20.2403302,42.373831],[20.2463764,42.3681497],[20.2443555,42.3522629],[20.2363661,42.3473861],[20.2478622,42.3331307],[20.2422031,42.3276709],[20.2458897,42.3240039],[20.2550223,42.322671],[20.2592265,42.3185657],[20.2922637,42.3234784],[20.3060738,42.3147548],[20.3268563,42.3272755],[20.3386988,42.3276625],[20.3538486,42.3172146],[20.3535896,42.3094476],[20.3946643,42.2986644],[20.4049459,42.2844311],[20.4233519,42.2823275],[20.425676,42.2779436],[20.4413834,42.2773905],[20.4567334,42.2720725],[20.4759701,42.2571778],[20.4860526,42.2602832],[20.4955305,42.2698965],[20.508329,42.2704017],[20.5123962,42.2768545],[20.5352731,42.2852718],[20.5444639,42.2948423],[20.5502257,42.2924293],[20.5588874,42.2956073],[20.5591203,42.3001161],[20.5537028,42.3048977],[20.5583215,42.3099986],[20.5507228,42.3161275],[20.5560433,42.3162957],[20.5650851,42.3037855],[20.5685937,42.3075254],[20.5812857,42.3100651],[20.5837326,42.3157671],[20.5967068,42.3211822],[20.6001413,42.3258409],[20.5984143,42.3302239],[20.6047291,42.3327325],[20.5809608,42.3392804],[20.5701604,42.3386879],[20.5659465,42.3435296],[20.5552794,42.3458191],[20.551859,42.3518866],[20.5402018,42.3495067],[20.5393543,42.3541856],[20.5274967,42.3635733],[20.526811,42.3691529],[20.5207744,42.3694676],[20.5223479,42.3734709],[20.5126352,42.3759664],[20.5111974,42.3848715],[20.5166933,42.3889248],[20.518815,42.3979355],[20.5116121,42.3976452],[20.5031875,42.4076353],[20.5115641,42.4126056],[20.5095302,42.4159308],[20.5172743,42.4205258],[20.5150558,42.4238389],[20.5181544,42.4270727],[20.5157779,42.434399],[20.5075074,42.4405696],[20.5128219,42.4453736],[20.5096502,42.454094],[20.5031457,42.4595334],[20.5060537,42.4657379],[20.4998699,42.4707987],[20.5093519,42.4746614],[20.5092168,42.4800613],[20.5160845,42.4809223],[20.5058844,42.4880317],[20.5155514,42.5080262],[20.5216351,42.5113351],[20.5367474,42.5101664],[20.5347222,42.5153475],[20.5388797,42.5197331]]]}},{"type":"Feature","properties":{"name":"Gjilan"},"geometry":{"type":"Polygon","coordinates":[[[21.4398994,42.381142],[21.4420975,42.3763677],[21.4358935,42.3739356],[21.4383198,42.3716644],[21.4618347,42.3684517],[21.4693725,42.3627885],[21.4710981,42.3498428],[21.4775271,42.3382824],[21.4902267,42.3275898],[21.4911461,42.3208814],[21.496374,42.31754],[21.5000913,42.3170327],[21.5018483,42.3206018],[21.5074361,42.3179372],[21.5077797,42.3127776],[21.4990927,42.3080812],[21.5025073,42.3002775],[21.51004,42.298119],[21.5164485,42.2838001],[21.5043235,42.2789732],[21.4994046,42.272355],[21.5116272,42.2698056],[21.5108043,42.2661527],[21.5196477,42.2608111],[21.51751,42.2596272],[21.5203555,42.2411212],[21.5303644,42.240702],[21.5439248,42.2533746],[21.5681208,42.2500212],[21.5848114,42.2586737],[21.5892399,42.2673177],[21.5826853,42.2757376],[21.5833284,42.2832661],[21.5608345,42.2988219],[21.5650066,42.300792],[21.5624427,42.3017307],[21.5648145,42.3097846],[21.5582649,42.3154335],[21.5409816,42.309141],[21.5380633,42.3108072],[21.5422409,42.3187507],[21.5373853,42.3194918],[21.5412859,42.3207501],[21.5281928,42.3273831],[21.5313272,42.3331501],[21.5297761,42.3427609],[21.5402241,42.3597126],[21.5369529,42.3667548],[21.5459404,42.3733612],[21.5571497,42.3624773],[21.5583481,42.3659913],[21.5661259,42.3678226],[21.5764564,42.3627872],[21.5847385,42.3675341],[21.5795597,42.375414],[21.6000009,42.3837276],[21.6057975,42.3754087],[21.6180425,42.3767063],[21.6281609,42.3926985],[21.6356683,42.3978625],[21.635664,42.4036312],[21.6448724,42.408324],[21.6465015,42.4133015],[21.6369534,42.4210415],[21.6377239,42.4293957],[21.6245823,42.4473629],[21.6288199,42.4573182],[21.6228143,42.45327],[21.6204314,42.4602169],[21.5973601,42.4633132],[21.5963789,42.4676287],[21.5889205,42.471456],[21.5938415,42.4800677],[21.5710615,42.4798427],[21.5486452,42.4737209],[21.5469375,42.4758655],[21.5524687,42.4827122],[21.5506483,42.5000637],[21.5467481,42.4997699],[21.5449982,42.5068579],[21.5396977,42.5115543],[21.5413282,42.5144163],[21.5365406,42.5170819],[21.5284512,42.5303954],[21.5231027,42.5276592],[21.518292,42.5305354],[21.5109882,42.5428456],[21.5054832,42.5445341],[21.5046894,42.5505599],[21.5021318,42.5475613],[21.4950792,42.5492711],[21.498171,42.5533635],[21.492756,42.5620926],[21.4947296,42.5658034],[21.4822891,42.5750291],[21.4726593,42.5726317],[21.4661973,42.5661513],[21.455147,42.5764039],[21.431826,42.5773507],[21.4265289,42.5733434],[21.4291585,42.565633],[21.42672,42.5595818],[21.4340103,42.5466682],[21.4310801,42.5426988],[21.4144266,42.5362275],[21.3982748,42.5365741],[21.4011287,42.5396689],[21.3916089,42.5508044],[21.3921775,42.5536619],[21.380195,42.5590207],[21.3779957,42.565475],[21.3734601,42.5678369],[21.362601,42.566525],[21.3513332,42.5589333],[21.3326078,42.5602811],[21.3295517,42.5578948],[21.3229988,42.5628292],[21.3090188,42.5650092],[21.3084812,42.5568922],[21.2981099,42.559541],[21.2991417,42.5569729],[21.2834936,42.5406965],[21.2839317,42.5346685],[21.2882422,42.5304052],[21.2936225,42.5306717],[21.2938435,42.5276231],[21.3067118,42.5267438],[21.302015,42.5215696],[21.3002756,42.5116172],[21.3151178,42.4931331],[21.3053415,42.482525],[21.2735311,42.4822057],[21.2767815,42.4765012],[21.2744044,42.475904],[21.2820997,42.474911],[21.2773014,42.4699745],[21.2776452,42.458183],[21.2744094,42.4522442],[21.2862636,42.4390212],[21.2847302,42.4360832],[21.2885578,42.4306953],[21.292765,42.4307017],[21.3081546,42.41923],[21.325673,42.4283379],[21.3483077,42.4315483],[21.3472477,42.4353089],[21.353509,42.4352803],[21.3653334,42.4442538],[21.3688548,42.4427714],[21.3662022,42.439182],[21.3785786,42.4334767],[21.3690545,42.4319724],[21.3703588,42.4276012],[21.3771957,42.4251218],[21.3775588,42.4182122],[21.3873489,42.4152195],[21.392666,42.4169848],[21.3959089,42.409716],[21.4079717,42.4083387],[21.4150949,42.4020246],[21.4249486,42.4042661],[21.4280588,42.408797],[21.4479798,42.4081188],[21.4496365,42.4148429],[21.4456017,42.4157875],[21.4475724,42.4182009],[21.4355342,42.4262058],[21.4424111,42.4271246],[21.4524979,42.4241943],[21.4550664,42.4180785],[21.4591574,42.4167271],[21.4692539,42.422967],[21.4823978,42.4145443],[21.4875185,42.4217274],[21.5092646,42.4268553],[21.525062,42.4106829],[21.5392409,42.41209],[21.5372048,42.4073662],[21.531526,42.405511],[21.5349912,42.4034075],[21.5351406,42.3976415],[21.5392315,42.3967794],[21.5344401,42.396262],[21.5335513,42.3905828],[21.5395162,42.3877792],[21.5335636,42.38422],[21.5178667,42.3925928],[21.5052177,42.391772],[21.4743512,42.4036501],[21.4761633,42.3986689],[21.4674286,42.4002109],[21.4598901,42.3915647],[21.4489894,42.3930494],[21.4437089,42.382588],[21.4398994,42.381142]]]}},{"type":"Feature","properties":{"name":"Gllogoc"},"geometry":{"type":"Polygon","coordinates":[[[20.9696769,42.6443442],[20.9603071,42.6801266],[20.9619077,42.6888857],[20.971324,42.6938799],[20.9637903,42.7027841],[20.9487496,42.711402],[20.9440192,42.7236641],[20.923701,42.7122855],[20.9102894,42.7167797],[20.8917499,42.701007],[20.8795161,42.6848152],[20.8752066,42.691165],[20.8708696,42.6916354],[20.8658454,42.7020601],[20.8567861,42.7004534],[20.8466627,42.7066127],[20.8356098,42.7013013],[20.8357864,42.6955101],[20.8254331,42.6951008],[20.8132348,42.6900233],[20.8185688,42.6735164],[20.8233614,42.6694751],[20.8193736,42.6665765],[20.8085754,42.6630363],[20.8041008,42.6645122],[20.8009125,42.6602766],[20.7997488,42.6651301],[20.7858335,42.6594847],[20.7694527,42.6597605],[20.7740101,42.648734],[20.7670135,42.6418336],[20.7688258,42.6405216],[20.7639992,42.6324938],[20.7673981,42.6133923],[20.7584341,42.6067581],[20.7703236,42.6094806],[20.7855249,42.6083437],[20.7993504,42.5993604],[20.7961977,42.5882571],[20.7897609,42.5870421],[20.7870956,42.5793062],[20.7907496,42.5736029],[20.7989722,42.5722992],[20.805704,42.5665976],[20.8004684,42.5431286],[20.8042227,42.5297939],[20.8117132,42.5340697],[20.8372475,42.5347138],[20.8484961,42.5317873],[20.8478831,42.5453138],[20.8523582,42.5468292],[20.8731136,42.5202446],[20.8835725,42.5182231],[20.8793242,42.5132041],[20.8823867,42.51127],[20.904194,42.5268256],[20.9190266,42.5293855],[20.9197317,42.5402353],[20.9306893,42.5399106],[20.9349371,42.5354122],[20.9468943,42.5336148],[20.9618553,42.5439522],[20.958542,42.5508318],[20.9523381,42.5543096],[20.9570069,42.5585379],[20.954967,42.561799],[20.9716774,42.5710974],[20.9771115,42.570171],[20.9801918,42.5751736],[20.9792285,42.5966811],[20.9652905,42.5995],[20.9736135,42.605457],[20.9710878,42.6135293],[20.9793609,42.6195445],[20.9863422,42.6307776],[20.9696769,42.6443442]]]}},{"type":"Feature","properties":{"name":"Graçanicë"},"geometry":{"type":"Polygon","coordinates":[[[21.0490847,42.5832029],[21.0451079,42.5767856],[21.0398121,42.5753619],[21.039205,42.5660073],[21.0495176,42.5602691],[21.0637793,42.561744],[21.0642611,42.5568781],[21.0692661,42.5529661],[21.0623043,42.5502689],[21.0641345,42.5466054],[21.0809783,42.5469935],[21.0868651,42.5415242],[21.0862065,42.5370849],[21.0943618,42.5329748],[21.0924104,42.5318903],[21.0946057,42.5287266],[21.1182567,42.5350631],[21.1302512,42.5609891],[21.1399026,42.5620971],[21.1502614,42.5433074],[21.1465285,42.5411602],[21.1504459,42.534428],[21.146486,42.5319298],[21.1496496,42.5220665],[21.1593488,42.5241345],[21.1628139,42.5189368],[21.1654308,42.5210054],[21.16768,42.5129343],[21.1783272,42.5117926],[21.1775009,42.5155757],[21.180443,42.5171798],[21.1977968,42.5185841],[21.1988989,42.5235267],[21.2014861,42.5231413],[21.195742,42.526466],[21.2012993,42.5350557],[21.1978808,42.5391023],[21.1996928,42.5403686],[21.2113024,42.5357645],[21.2183167,42.5386068],[21.2302999,42.5364941],[21.2342134,42.5294395],[21.2469438,42.5302792],[21.2521555,42.5272162],[21.2657265,42.5292536],[21.2570217,42.5346014],[21.2192822,42.5441656],[21.2198838,42.5478056],[21.2313774,42.5483286],[21.2339066,42.5521353],[21.2241597,42.5560303],[21.2178781,42.5535656],[21.2123853,42.5592399],[21.2164193,42.561097],[21.2214404,42.5706819],[21.2284678,42.5730285],[21.2249917,42.5747824],[21.2260002,42.5895944],[21.241299,42.6056728],[21.239403,42.6107529],[21.2447828,42.6129937],[21.2361714,42.6151864],[21.2289301,42.6235518],[21.2167553,42.6228903],[21.1830342,42.6052945],[21.166813,42.6015241],[21.1677041,42.6180754],[21.1634287,42.614937],[21.1586189,42.6175597],[21.1585916,42.6230501],[21.1491034,42.6252525],[21.1377804,42.6087008],[21.1267712,42.6138411],[21.1296576,42.6269862],[21.122549,42.6335232],[21.1353186,42.6382611],[21.1355629,42.6420857],[21.1101481,42.6370546],[21.1048542,42.6408006],[21.1059549,42.6361558],[21.0982253,42.632836],[21.0993659,42.619653],[21.1046552,42.6147816],[21.1126908,42.617811],[21.1155302,42.6103394],[21.1038138,42.5971841],[21.1045228,42.5945295],[21.1012385,42.5951216],[21.0995944,42.5841056],[21.1012448,42.5806679],[21.1071459,42.580021],[21.104954,42.57631],[21.1073962,42.5714614],[21.1006966,42.5697222],[21.0903971,42.5907855],[21.0723734,42.5958174],[21.0554843,42.5952026],[21.0587333,42.5890118],[21.0490847,42.5832029]]]}},{"type":"Feature","properties":{"name":"Hani i Elezit"},"geometry":{"type":"Polygon","coordinates":[[[21.1974349,42.1484491],[21.203089,42.147481],[21.2162683,42.1294033],[21.2127418,42.110914],[21.2213211,42.1001233],[21.2227158,42.0936857],[21.2326438,42.0980571],[21.2371848,42.0936685],[21.256891,42.0932063],[21.2920787,42.1114435],[21.3034969,42.1047418],[21.3214409,42.1080149],[21.3146699,42.1154367],[21.3159786,42.1181014],[21.3103006,42.1277741],[21.3033483,42.1323413],[21.3044653,42.1365014],[21.2981997,42.1389995],[21.3044745,42.1421351],[21.3038308,42.1453087],[21.3077924,42.1445466],[21.3074865,42.1481296],[21.3207098,42.1607879],[21.3158153,42.1677133],[21.3189363,42.1716627],[21.3155814,42.1724458],[21.3304494,42.1818345],[21.3358996,42.191398],[21.3291083,42.2002844],[21.3341079,42.2058477],[21.3322089,42.2077788],[21.3376787,42.208624],[21.317325,42.2138498],[21.3088037,42.1999177],[21.2987392,42.2009195],[21.2960888,42.1950285],[21.2909631,42.1936592],[21.2905269,42.1896138],[21.2830437,42.1875096],[21.2806208,42.1815279],[21.27058,42.1737295],[21.2615966,42.175481],[21.2640053,42.1784418],[21.2621436,42.1835469],[21.2665756,42.186818],[21.2654316,42.1905449],[21.2537461,42.188946],[21.2411451,42.1740919],[21.24241,42.1680175],[21.2362352,42.1603957],[21.2264927,42.158914],[21.2047111,42.1689025],[21.2057352,42.1626169],[21.1974349,42.1484491]]]}},{"type":"Feature","properties":{"name":"Istog"},"geometry":{"type":"Polygon","coordinates":[[[20.3200391,42.8260501],[20.3329663,42.8236422],[20.3409506,42.8123698],[20.3353527,42.793363],[20.3343625,42.7692829],[20.338502,42.764518],[20.3405426,42.7522952],[20.3475067,42.7446527],[20.3443822,42.7397873],[20.3474042,42.7367828],[20.3463993,42.7331255],[20.3417156,42.7321047],[20.3416446,42.7290889],[20.3497636,42.7226668],[20.3571208,42.7223417],[20.3584173,42.7188808],[20.3770977,42.7120353],[20.3919239,42.6997326],[20.3927166,42.6933857],[20.3976165,42.6898091],[20.427085,42.6862763],[20.4445043,42.6899147],[20.4484382,42.6841598],[20.4557025,42.6878496],[20.4738576,42.6839918],[20.4816594,42.6891649],[20.5148125,42.6832091],[20.5200226,42.6900622],[20.5340194,42.6829662],[20.557475,42.6851939],[20.5753499,42.6978645],[20.5750725,42.7072094],[20.5780888,42.7087561],[20.5849713,42.6986575],[20.5910229,42.7011268],[20.5976286,42.6987165],[20.6042115,42.7072203],[20.6194553,42.7165301],[20.6184112,42.7275755],[20.6328325,42.7239342],[20.6379543,42.7263181],[20.6408131,42.7314827],[20.6370424,42.7362814],[20.6439471,42.7386685],[20.6513997,42.7481995],[20.6514037,42.7516888],[20.6423003,42.7588223],[20.6349486,42.7700592],[20.6363617,42.773801],[20.6308441,42.7745098],[20.6288214,42.7780858],[20.6395826,42.7819848],[20.6448394,42.7942987],[20.6424414,42.8145518],[20.6489574,42.8235718],[20.6508671,42.8425967],[20.6311105,42.8417042],[20.6251972,42.8628622],[20.6162894,42.8672381],[20.6205771,42.8684008],[20.6207535,42.8716901],[20.5728523,42.8910161],[20.5668527,42.8921489],[20.5502786,42.8855328],[20.538465,42.8853243],[20.4868835,42.8678628],[20.4777249,42.8596597],[20.463874,42.8532954],[20.4419215,42.8335467],[20.4327132,42.8343797],[20.4161757,42.8458859],[20.4087857,42.8472074],[20.3820473,42.842239],[20.3645539,42.8322376],[20.3349007,42.8355501],[20.3200391,42.8260501]]]}},{"type":"Feature","properties":{"name":"Junik"},"geometry":{"type":"Polygon","coordinates":[[[20.0864204,42.5850303],[20.0894838,42.5746924],[20.0788686,42.5562941],[20.0875794,42.551621],[20.0894905,42.5452015],[20.1015405,42.5318971],[20.1665232,42.5066941],[20.1992216,42.5129213],[20.1974089,42.5068188],[20.2017837,42.4930746],[20.2147557,42.4872914],[20.2190863,42.481731],[20.2276189,42.4818734],[20.2356132,42.4739743],[20.2436903,42.4746479],[20.2468564,42.4704951],[20.253246,42.4706248],[20.2543303,42.4671292],[20.2647805,42.4642414],[20.2682774,42.4661335],[20.2723638,42.4592196],[20.2897739,42.4558322],[20.2996821,42.4587922],[20.312298,42.4506576],[20.3137834,42.4630503],[20.324718,42.4457671],[20.3434513,42.453218],[20.3383712,42.4564447],[20.3359097,42.463586],[20.3265582,42.4683068],[20.3375001,42.4740365],[20.3228273,42.4748682],[20.3157495,42.4871022],[20.3058229,42.4857979],[20.2993398,42.4993709],[20.2891479,42.4947972],[20.2836913,42.5010526],[20.2758209,42.5038983],[20.258111,42.5018947],[20.2498023,42.5091517],[20.2374674,42.512024],[20.2399634,42.5141103],[20.2346842,42.5201432],[20.2103346,42.5210283],[20.1836822,42.5306018],[20.1618168,42.5257144],[20.1538504,42.5337312],[20.1734869,42.5467733],[20.158796,42.5560036],[20.14702,42.5575206],[20.1212193,42.5411078],[20.1108226,42.5402231],[20.1152356,42.5438063],[20.1060435,42.5535348],[20.1112907,42.5588491],[20.1117513,42.5655961],[20.1173797,42.5694825],[20.1004396,42.5798349],[20.0881971,42.5817427],[20.0864204,42.5850303]]]}},{"type":"Feature","properties":{"name":"Kaçanik"},"geometry":{"type":"Polygon","coordinates":[[[21.1191426,42.2067745],[21.1681392,42.1968348],[21.1653926,42.1850065],[21.1715724,42.1738121],[21.1780029,42.1724948],[21.186292,42.1639043],[21.1844444,42.162986],[21.1912583,42.1592766],[21.1974349,42.1484491],[21.2057352,42.1626169],[21.2047111,42.1689025],[21.2264927,42.158914],[21.2362352,42.1603957],[21.24241,42.1680175],[21.2405871,42.1729637],[21.2474527,42.1840481],[21.2537461,42.188946],[21.2645435,42.1911382],[21.2665756,42.186818],[21.2621436,42.1835469],[21.2640053,42.1784418],[21.2615966,42.175481],[21.27058,42.1737295],[21.2806208,42.1815279],[21.2830437,42.1875096],[21.2905269,42.1896138],[21.2909631,42.1936592],[21.2960888,42.1950285],[21.2987392,42.2009195],[21.3088037,42.1999177],[21.317325,42.2138498],[21.339011,42.2072539],[21.3413284,42.2122127],[21.3456865,42.2103469],[21.3564155,42.2152927],[21.3600183,42.2217223],[21.367271,42.2214585],[21.3773096,42.2375996],[21.3628079,42.2428407],[21.3433028,42.2585797],[21.339417,42.2490978],[21.3336715,42.2480367],[21.3256406,42.2543889],[21.3113577,42.2570487],[21.3015334,42.2539677],[21.2988679,42.2580295],[21.2889285,42.2590374],[21.2768631,42.2780805],[21.2723013,42.2795656],[21.2724323,42.2836222],[21.2618881,42.2843425],[21.2638309,42.2900272],[21.2574738,42.2975546],[21.2733082,42.3161374],[21.2818289,42.3214444],[21.2876701,42.3212397],[21.283001,42.3256346],[21.2876972,42.3330749],[21.2845771,42.3354727],[21.2696348,42.3249897],[21.2525683,42.3288218],[21.2329762,42.3165692],[21.2060321,42.3103508],[21.2060432,42.3040926],[21.2091459,42.3013884],[21.2029902,42.2998564],[21.2037179,42.2947633],[21.1974033,42.2947444],[21.1982065,42.2919655],[21.1950727,42.2903175],[21.1896017,42.2909548],[21.1893089,42.2949189],[21.1796315,42.3033252],[21.1677432,42.2993328],[21.1591082,42.2886109],[21.1530484,42.2866987],[21.1432845,42.2866774],[21.1329538,42.2956783],[21.1132641,42.2889592],[21.1118968,42.2873317],[21.1258635,42.2812637],[21.1346112,42.2813622],[21.1381405,42.2754457],[21.1427209,42.2755769],[21.1402542,42.2729066],[21.1468776,42.2659082],[21.1443835,42.2611061],[21.1458349,42.2453018],[21.1408532,42.2408326],[21.1306973,42.238944],[21.1233869,42.2251432],[21.1191426,42.2067745]]]}},{"type":"Feature","properties":{"name":"Kamenicë"},"geometry":{"type":"MultiPolygon","coordinates":[[[[21.5063733,42.7324098],[21.4947209,42.7179284],[21.4846731,42.7134174],[21.4886916,42.7085673],[21.484591,42.7081945],[21.4782132,42.6951147],[21.4479238,42.6981639],[21.4366917,42.7083856],[21.4320944,42.7032124],[21.4234259,42.7046637],[21.4156043,42.7005082],[21.4192647,42.6938313],[21.4333236,42.6897919],[21.4308187,42.6863154],[21.4331336,42.6775337],[21.4508507,42.6741741],[21.4728926,42.6598318],[21.4747128,42.6564943],[21.4673228,42.6569576],[21.4710048,42.6436435],[21.4616119,42.6418626],[21.4598538,42.6280046],[21.4714484,42.6186536],[21.4866066,42.6158871],[21.487004,42.6090954],[21.4839407,42.6073496],[21.4891087,42.594312],[21.4936875,42.5960205],[21.5061734,42.5907893],[21.5033293,42.5854169],[21.5067838,42.5761639],[21.4963595,42.5724009],[21.4927339,42.5622935],[21.498171,42.5533635],[21.4950792,42.5492711],[21.5021318,42.5475613],[21.5046894,42.5505599],[21.5054832,42.5445341],[21.5109882,42.5428456],[21.5203216,42.528655],[21.5284512,42.5303954],[21.5365406,42.5170819],[21.5413282,42.5144163],[21.5402733,42.5117907],[21.5485551,42.5150061],[21.5436619,42.5197754],[21.549686,42.5254831],[21.5465962,42.5266977],[21.545934,42.5235211],[21.5379073,42.5219805],[21.5382683,42.5264834],[21.5352117,42.5286326],[21.5371848,42.5308655],[21.5265368,42.5387474],[21.5230925,42.5373364],[21.5191326,42.5456743],[21.5112565,42.5496572],[21.5411899,42.55353],[21.5497515,42.5438871],[21.5580127,42.540077],[21.5809724,42.5354128],[21.6107557,42.5386699],[21.6182444,42.5445985],[21.6446373,42.528329],[21.6622112,42.5275541],[21.7069569,42.5134029],[21.7105732,42.5165844],[21.6984997,42.5285778],[21.6935241,42.5393545],[21.7013226,42.5408764],[21.7066746,42.5497227],[21.7283163,42.5470329],[21.747816,42.5589078],[21.7488835,42.5616776],[21.744769,42.5652059],[21.7481217,42.570255],[21.7475477,42.5810432],[21.7401273,42.5909587],[21.7384166,42.6011685],[21.7447476,42.6039263],[21.7455716,42.6089529],[21.7517147,42.6089268],[21.7570234,42.61905],[21.7539884,42.6284718],[21.7579776,42.6366936],[21.7704334,42.634623],[21.7789982,42.6434556],[21.7785898,42.6467328],[21.7894228,42.6513011],[21.7806748,42.6625558],[21.7727732,42.6668552],[21.771615,42.6759611],[21.761285,42.6826765],[21.752817,42.6947695],[21.7523495,42.7005514],[21.737554,42.6946963],[21.7245936,42.6949487],[21.7171436,42.6897886],[21.7039901,42.6925171],[21.6784751,42.6868041],[21.6760368,42.6824776],[21.6775661,42.6762818],[21.6647385,42.6663751],[21.6487059,42.6794929],[21.6487222,42.6854932],[21.6396642,42.6923554],[21.638099,42.6977777],[21.6324817,42.7001636],[21.6232073,42.6948128],[21.6088781,42.6977425],[21.5991721,42.7038491],[21.5913834,42.7035132],[21.5945214,42.7102512],[21.5901893,42.7267172],[21.5714512,42.7278309],[21.561739,42.7335606],[21.5600044,42.7383484],[21.5525303,42.7310963],[21.5418873,42.7284565],[21.5400772,42.7236907],[21.5063733,42.7324098]]],[[[21.5524687,42.4827122],[21.5469375,42.4758655],[21.5515263,42.4726206],[21.553885,42.478324],[21.565805,42.4824977],[21.5847621,42.4836684],[21.5893547,42.4898464],[21.5842049,42.4918559],[21.5856318,42.4974726],[21.5762548,42.4978285],[21.5633051,42.4928843],[21.558824,42.4842589],[21.5524687,42.4827122]]]]}},{"type":"Feature","properties":{"name":"Klinë"},"geometry":{"type":"Polygon","coordinates":[[[20.5615988,42.5237298],[20.5672659,42.5260908],[20.5667127,42.5288945],[20.598302,42.5245834],[20.5976969,42.5294799],[20.6020072,42.5299341],[20.605024,42.5238676],[20.6443359,42.529794],[20.6468058,42.5325558],[20.6421573,42.5364082],[20.6477241,42.5415528],[20.642322,42.5434683],[20.6476824,42.545646],[20.644952,42.5483024],[20.6477562,42.5518081],[20.6572197,42.5559816],[20.6576216,42.5628236],[20.6797153,42.5697301],[20.6986066,42.5820527],[20.7028887,42.5809423],[20.7163488,42.5880714],[20.7200461,42.5860426],[20.7205835,42.5794166],[20.7275951,42.5746931],[20.7390242,42.5814597],[20.7449912,42.5916828],[20.7643844,42.6021101],[20.7647497,42.6073307],[20.7449888,42.6048822],[20.7391231,42.6077182],[20.7384117,42.6169207],[20.7262205,42.6300923],[20.7027464,42.6307142],[20.6973761,42.6348271],[20.6959006,42.6481341],[20.7047894,42.6645921],[20.7008982,42.6708454],[20.7019429,42.6774826],[20.6927417,42.684882],[20.6936835,42.6868778],[20.6846923,42.68641],[20.681953,42.6793704],[20.6761503,42.6750286],[20.653503,42.6747119],[20.6466596,42.6778686],[20.6356707,42.692862],[20.6329935,42.6972853],[20.6342367,42.7053779],[20.622793,42.7073478],[20.6194553,42.7165301],[20.6042115,42.7072203],[20.5976286,42.6987165],[20.5910229,42.7011268],[20.5849713,42.6986575],[20.5780888,42.7087561],[20.5750725,42.7072094],[20.5753499,42.6978645],[20.557475,42.6851939],[20.5340194,42.6829662],[20.5200226,42.6900622],[20.5148125,42.6832091],[20.5097742,42.6829015],[20.5034196,42.6870044],[20.4921271,42.6857885],[20.4816594,42.6891649],[20.4738576,42.6839918],[20.4593308,42.6863989],[20.4603824,42.6833115],[20.466759,42.6823309],[20.4641632,42.6778691],[20.4703326,42.6769289],[20.4675689,42.6742939],[20.4701479,42.6601506],[20.4784654,42.6582778],[20.4875427,42.6447218],[20.4963181,42.6447979],[20.4811052,42.6251532],[20.4719994,42.621181],[20.4706412,42.6176669],[20.4745936,42.6144378],[20.4764263,42.600341],[20.4718439,42.5940041],[20.4885666,42.5931987],[20.4905654,42.5821385],[20.5071905,42.57428],[20.5087805,42.5691514],[20.5158594,42.5665167],[20.515554,42.5617906],[20.5233852,42.5533031],[20.5162514,42.5458037],[20.5202735,42.5441079],[20.5207492,42.540125],[20.5274485,42.5400381],[20.525057,42.5343426],[20.5332246,42.5301361],[20.5315722,42.5264252],[20.5379709,42.5259125],[20.5339062,42.5241608],[20.5350383,42.5222989],[20.5502404,42.5199937],[20.5550752,42.5223683],[20.5552754,42.5270827],[20.5615988,42.5237298]]]}},{"type":"Feature","properties":{"name":"Kllokot"},"geometry":{"type":"Polygon","coordinates":[[[21.3552053,42.3707217],[21.3649568,42.359765],[21.3599167,42.3501893],[21.3721107,42.3482164],[21.3721591,42.3352858],[21.3800458,42.327825],[21.388451,42.3264696],[21.3912156,42.3222495],[21.3963624,42.3239268],[21.4004035,42.3216363],[21.4013874,42.3241973],[21.4120585,42.3214117],[21.4219018,42.3121933],[21.4454167,42.3109855],[21.4407466,42.3199419],[21.4354592,42.3210856],[21.4374999,42.3262855],[21.4293138,42.3293314],[21.4262916,42.3353086],[21.4070809,42.3424871],[21.4105351,42.3469027],[21.4084257,42.3529709],[21.4043344,42.356099],[21.3948919,42.3532952],[21.3937876,42.362522],[21.3997052,42.3664445],[21.4001439,42.371484],[21.3913968,42.365694],[21.3836008,42.3777391],[21.3756702,42.3835882],[21.3695697,42.3784629],[21.3613529,42.3808192],[21.359293,42.3735672],[21.3552053,42.3707217]]]}},{"type":"Feature","properties":{"name":"Leposaviq"},"geometry":{"type":"Polygon","coordinates":[[[21.0027179,43.0710687],[21.0063234,43.0760808],[21.0056282,43.0938944],[21.0008053,43.1019508],[20.998914,43.1384166],[20.9761525,43.134369],[20.971695,43.1309186],[20.9730667,43.1265486],[20.9706758,43.1246617],[20.9555551,43.127607],[20.9464753,43.1338016],[20.9374473,43.1346228],[20.9293349,43.1463574],[20.9120264,43.1487702],[20.9028386,43.1562206],[20.8942409,43.1556811],[20.884189,43.167484],[20.8660118,43.1654715],[20.8584452,43.174845],[20.8415486,43.1735911],[20.8345538,43.1789943],[20.8377063,43.1849217],[20.8571591,43.1897022],[20.8454089,43.1984748],[20.8429794,43.203231],[20.844996,43.2074587],[20.8906995,43.2038752],[20.881223,43.2109464],[20.8802982,43.2227503],[20.8730988,43.2313383],[20.8517343,43.2511615],[20.8366609,43.2566716],[20.8354662,43.2615039],[20.8300665,43.2616605],[20.8275125,43.26572],[20.801984,43.265703],[20.7932281,43.2576241],[20.7950359,43.2456566],[20.775886,43.2464055],[20.7635372,43.2434216],[20.7401925,43.2508955],[20.7316995,43.249348],[20.7212663,43.2348521],[20.7106587,43.2315566],[20.7076653,43.2263267],[20.6993854,43.2252753],[20.6886034,43.2188081],[20.687627,43.2132866],[20.6768873,43.208979],[20.6562639,43.2099154],[20.6441638,43.2066156],[20.6343412,43.2085355],[20.6154366,43.2044757],[20.6032554,43.210859],[20.5971094,43.2053994],[20.5971687,43.2026015],[20.6143402,43.190141],[20.6157356,43.1792593],[20.6114628,43.174592],[20.6319106,43.1634307],[20.6431945,43.1620354],[20.6624827,43.1531719],[20.6644423,43.1433338],[20.6608725,43.1375437],[20.6726595,43.1318096],[20.673199,43.1268628],[20.6854805,43.1230139],[20.693867,43.1073091],[20.69379,43.1031872],[20.6886852,43.1005913],[20.6936807,43.0935662],[20.6882654,43.0818201],[20.6629748,43.0765147],[20.6568476,43.0719425],[20.658296,43.0683568],[20.6691289,43.0649778],[20.6715984,43.0573505],[20.6888596,43.0591954],[20.6918329,43.0560675],[20.7049335,43.0548259],[20.7046881,43.0455541],[20.6995206,43.0433629],[20.711353,43.0380841],[20.7206734,43.0283234],[20.7414854,43.0429],[20.7463267,43.0385587],[20.7615884,43.0405953],[20.7604044,43.0370114],[20.7647544,43.0277452],[20.7836412,43.0266274],[20.7903562,43.0169156],[20.7998465,43.0157049],[20.8064717,43.0211303],[20.8097717,43.0138934],[20.7984229,43.0012413],[20.8043106,42.996915],[20.8128544,42.9971255],[20.8211461,42.9908436],[20.8178201,42.9860552],[20.8209895,42.983555],[20.8280814,42.9875839],[20.8272785,42.9843932],[20.8333941,42.984298],[20.8368136,42.9870665],[20.8334958,42.9892445],[20.8380599,42.9903389],[20.8362181,42.9931057],[20.8578589,43.0026202],[20.8679459,43.0013274],[20.8891561,43.0062276],[20.8937373,43.0137117],[20.8867305,43.0197068],[20.8889118,43.0223479],[20.886048,43.0260098],[20.8907674,43.0297202],[20.8968027,43.0286289],[20.9028898,43.0201414],[20.9102383,43.0183597],[20.9161902,43.0120121],[20.9329005,43.0182967],[20.9413093,43.0347576],[20.9606667,43.0407885],[20.9746998,43.0405266],[20.9784918,43.0461663],[20.9787946,43.0546268],[20.9931564,43.0633888],[20.996463,43.0724862],[21.0027179,43.0710687]]]}},{"type":"Feature","properties":{"name":"Lipjan"},"geometry":{"type":"Polygon","coordinates":[[[20.9893191,42.5727545],[20.9716774,42.5710974],[20.9546258,42.5614077],[20.9570069,42.5585379],[20.9525009,42.5534071],[20.958542,42.5508318],[20.9618553,42.5439522],[20.9496558,42.5376051],[20.9488822,42.5340896],[20.9197317,42.5402353],[20.9190266,42.5293855],[20.904194,42.5268256],[20.8823867,42.51127],[20.8776649,42.515015],[20.8594163,42.5154103],[20.8577113,42.4981663],[20.8498904,42.4943201],[20.8544354,42.4851912],[20.8822521,42.4909748],[20.8958058,42.4888392],[20.8990678,42.4798178],[20.9059059,42.4788575],[20.906606,42.4761571],[20.9172335,42.4782151],[20.9288055,42.4754605],[20.9370831,42.4788702],[20.9434774,42.48712],[20.964203,42.4962323],[20.9815981,42.4787605],[20.9942226,42.4797152],[21.0019818,42.4860067],[21.0152605,42.4752492],[21.0198012,42.4786502],[21.0426019,42.4776065],[21.0520504,42.4711017],[21.0661819,42.4696483],[21.0766033,42.47117],[21.0687935,42.4716861],[21.0845412,42.4764056],[21.0896046,42.4840991],[21.092738,42.4784516],[21.0899251,42.4746068],[21.0989155,42.4779829],[21.0956692,42.475514],[21.0972368,42.4734011],[21.0943567,42.4743351],[21.0984706,42.4692915],[21.107167,42.4679681],[21.1314186,42.4725525],[21.135292,42.4695158],[21.1383376,42.4573668],[21.1449216,42.4525446],[21.1489852,42.4561192],[21.1614084,42.455317],[21.1617352,42.4613536],[21.1764632,42.4604489],[21.1800236,42.4558693],[21.1924413,42.4633794],[21.213681,42.4657811],[21.2471527,42.4582631],[21.2493883,42.4522018],[21.2592234,42.4443938],[21.2763586,42.4539738],[21.2769655,42.468933],[21.2820997,42.474911],[21.2744044,42.475904],[21.2767815,42.4765012],[21.2733751,42.4789411],[21.2741487,42.4829371],[21.3053415,42.482525],[21.3151178,42.4931331],[21.3002756,42.5116172],[21.302015,42.5215696],[21.3067118,42.5267438],[21.2882422,42.5304052],[21.2839317,42.5346685],[21.2834936,42.5406965],[21.2991417,42.5569729],[21.2981712,42.5595813],[21.3067249,42.5564726],[21.3101106,42.5593445],[21.3075697,42.5648266],[21.3223549,42.5629201],[21.3243943,42.5695045],[21.3324147,42.5720264],[21.3382337,42.5794137],[21.3378537,42.5855296],[21.3422397,42.5858149],[21.3314392,42.5970709],[21.3218237,42.5879419],[21.3158984,42.6031012],[21.3111547,42.6041869],[21.3114925,42.6095878],[21.2930831,42.6153263],[21.2863589,42.6228222],[21.2568068,42.6186994],[21.2541565,42.6147864],[21.2504639,42.6168944],[21.239403,42.6107529],[21.241299,42.6056728],[21.233715,42.5974985],[21.240038,42.5947196],[21.2396951,42.5848819],[21.2451715,42.5825096],[21.2454054,42.577464],[21.2246176,42.572851],[21.2188762,42.5683194],[21.2164193,42.561097],[21.2122458,42.5597378],[21.2178781,42.5535656],[21.2241597,42.5560303],[21.2339066,42.5521353],[21.2313774,42.5483286],[21.2198838,42.5478056],[21.2192822,42.5441656],[21.2570217,42.5346014],[21.2657265,42.5292536],[21.2521555,42.5272162],[21.2469438,42.5302792],[21.2342134,42.5294395],[21.2302999,42.5364941],[21.2183167,42.5386068],[21.2113024,42.5357645],[21.1996928,42.5403686],[21.1978808,42.5391023],[21.2012993,42.5350557],[21.195742,42.526466],[21.2013179,42.5224391],[21.1988989,42.5235267],[21.1977968,42.5185841],[21.180443,42.5171798],[21.1775009,42.5155757],[21.1783272,42.5117926],[21.16768,42.5129343],[21.1654308,42.5210054],[21.1628139,42.5189368],[21.1593488,42.5241345],[21.1496496,42.5220665],[21.146486,42.5319298],[21.1504459,42.534428],[21.1465285,42.5411602],[21.1502614,42.5433074],[21.1399026,42.5620971],[21.1302512,42.5609891],[21.1182567,42.5350631],[21.0946057,42.5287266],[21.0924104,42.5318903],[21.0943618,42.5329748],[21.0862065,42.5370849],[21.0868651,42.5415242],[21.0809783,42.5469935],[21.0641345,42.5466054],[21.0623043,42.5502689],[21.0692661,42.5529661],[21.0642611,42.5568781],[21.0637793,42.561744],[21.0495176,42.5602691],[21.039205,42.5660073],[21.0398121,42.5753619],[21.0484516,42.5802244],[21.0484261,42.5877531],[21.041207,42.5862039],[21.0299793,42.5891965],[21.0213589,42.5852832],[21.0231095,42.581572],[20.9951233,42.5773129],[20.9893191,42.5727545]]]}},{"type":"Feature","properties":{"name":"Malishevë"},"geometry":{"type":"Polygon","coordinates":[[[20.7252644,42.4073175],[20.7382511,42.3995738],[20.7515455,42.4056655],[20.7665833,42.4021912],[20.763884,42.4185988],[20.7713161,42.4197245],[20.7773449,42.4320997],[20.7804716,42.4303446],[20.782892,42.4353336],[20.7932481,42.4346785],[20.7931106,42.4389616],[20.7965691,42.4353217],[20.8023473,42.4390549],[20.811248,42.4364137],[20.8110303,42.4341105],[20.8195708,42.434234],[20.8226652,42.4297469],[20.8329798,42.4323815],[20.8473109,42.4418096],[20.8689041,42.4457731],[20.8768327,42.4438092],[20.8829571,42.4492854],[20.8808104,42.4635478],[20.8662791,42.4665903],[20.8645321,42.4705083],[20.8642476,42.4782226],[20.8707958,42.488021],[20.8677715,42.4894486],[20.855173,42.4846866],[20.8498904,42.4943201],[20.8577113,42.4981663],[20.8594163,42.5154103],[20.8800508,42.5144708],[20.8842456,42.5173819],[20.8731136,42.5202446],[20.8523582,42.5468292],[20.8478831,42.5453138],[20.8484961,42.5317873],[20.8372475,42.5347138],[20.8117132,42.5340697],[20.8042227,42.5297939],[20.8004684,42.5431286],[20.805704,42.5665976],[20.7989722,42.5722992],[20.7907496,42.5736029],[20.7870956,42.5793062],[20.7897609,42.5870421],[20.7961977,42.5882571],[20.7997932,42.5986022],[20.7855249,42.6083437],[20.764702,42.6073975],[20.7643844,42.6021101],[20.7449912,42.5916828],[20.7390242,42.5814597],[20.7275951,42.5746931],[20.7205835,42.5794166],[20.7200461,42.5860426],[20.7163488,42.5880714],[20.7028887,42.5809423],[20.6986066,42.5820527],[20.6797153,42.5697301],[20.6576216,42.5628236],[20.6572197,42.5559816],[20.6477562,42.5518081],[20.644952,42.5483024],[20.6476824,42.545646],[20.642322,42.5434683],[20.6477241,42.5415528],[20.6421573,42.5364082],[20.6468058,42.5325558],[20.6443359,42.529794],[20.605024,42.5238676],[20.6020072,42.5299341],[20.5976969,42.5294799],[20.598302,42.5245834],[20.5667127,42.5288945],[20.5656449,42.5246302],[20.5563374,42.5232455],[20.5574782,42.5111031],[20.5613023,42.5106441],[20.5652586,42.5028978],[20.5733455,42.5016776],[20.5883136,42.4894495],[20.597147,42.4873331],[20.604279,42.4813963],[20.6096766,42.4880016],[20.6344488,42.4827513],[20.6459002,42.4875797],[20.6509768,42.4932733],[20.6644925,42.4895786],[20.6623636,42.4879001],[20.6655533,42.4800813],[20.6642284,42.4750874],[20.670087,42.4719592],[20.6710647,42.4657307],[20.6641526,42.4581976],[20.6646052,42.451404],[20.6724519,42.4422554],[20.6954102,42.4314936],[20.6909927,42.4300179],[20.6914996,42.4246973],[20.6878641,42.4224273],[20.6867009,42.415746],[20.6963432,42.4137671],[20.7090293,42.4175143],[20.7124682,42.4034117],[20.7252644,42.4073175]]]}},{"type":"Feature","properties":{"name":"Mamushë"},"geometry":{"type":"Polygon","coordinates":[[[20.7024756,42.3185519],[20.7052697,42.3207272],[20.7099652,42.3140108],[20.7248042,42.3104895],[20.7260916,42.3078569],[20.7231294,42.306254],[20.7325555,42.3068079],[20.7313267,42.3105777],[20.7363368,42.3112304],[20.731706,42.3167745],[20.7395803,42.3239329],[20.746992,42.3225905],[20.7505609,42.3278535],[20.7461378,42.3289266],[20.7451235,42.3329458],[20.7482367,42.3337328],[20.7435909,42.3372159],[20.7296583,42.3396601],[20.7312665,42.3409945],[20.7266385,42.346056],[20.7185076,42.3500976],[20.7104709,42.3494462],[20.703252,42.3422739],[20.7051848,42.3344703],[20.7025602,42.3332044],[20.7095437,42.3293251],[20.7024756,42.3185519]]]}},{"type":"Feature","properties":{"name":"Mitrovicë e Jugut"},"geometry":{"type":"Polygon","coordinates":[[[20.8182008,42.8993068],[20.8074065,42.9004159],[20.7935455,42.9077146],[20.7923297,42.9002163],[20.7967401,42.8910209],[20.791883,42.887458],[20.7932976,42.8841498],[20.7839936,42.885861],[20.7689547,42.8780851],[20.7596947,42.8807217],[20.7522085,42.8727794],[20.7450517,42.8739329],[20.7366493,42.8594939],[20.7382139,42.8556284],[20.756554,42.8395878],[20.7643373,42.8417916],[20.7667198,42.8334288],[20.780907,42.8260023],[20.7840268,42.8179668],[20.7958629,42.8242229],[20.8079351,42.8195633],[20.8237879,42.823559],[20.8314492,42.8147985],[20.8366536,42.8134372],[20.8429668,42.8190754],[20.8535674,42.8199013],[20.8599139,42.8272826],[20.8743218,42.8287427],[20.8796139,42.8318554],[20.8779935,42.8346966],[20.8811635,42.8375775],[20.8896938,42.8413166],[20.8967371,42.8403526],[20.9042408,42.8481769],[20.9062208,42.8461823],[20.9170661,42.8482416],[20.9141272,42.8425237],[20.9192276,42.8442409],[20.9250648,42.8409794],[20.9345139,42.8490222],[20.9307587,42.8521446],[20.9376498,42.8785659],[20.9342953,42.8798383],[20.935678,42.8907654],[20.9452375,42.8902385],[20.9438337,42.8988836],[20.9543054,42.9034041],[20.9578896,42.8942327],[20.9658246,42.8930456],[20.9732844,42.8954222],[20.9722642,42.8980046],[20.9778132,42.9020404],[20.9799396,42.9006247],[20.9814433,42.9009093],[20.980304,42.9086218],[20.9844793,42.9217712],[20.973447,42.9371808],[20.9847628,42.9378767],[20.9901408,42.9438152],[21.0129986,42.9326965],[21.0175651,42.9263967],[21.0338165,42.936611],[21.0515938,42.9391081],[21.0577763,42.9319473],[21.0687424,42.9310463],[21.0661839,42.9430171],[21.0728882,42.9413527],[21.0808037,42.94555],[21.0850752,42.9578196],[21.0822569,42.9619153],[21.0865195,42.9703577],[21.0794411,42.9751302],[21.0804472,42.9782103],[21.0725637,42.9931564],[21.0550926,43.0210639],[21.0452517,43.0239317],[21.0417127,43.0285692],[21.0291218,43.0309684],[21.0328465,43.0371241],[21.0289084,43.0489761],[21.0205052,43.0573477],[21.0148701,43.0580437],[21.0127904,43.0678737],[20.996463,43.0724862],[20.9931564,43.0633888],[20.9787946,43.0546268],[20.9784918,43.0461663],[20.9746998,43.0405266],[20.9606667,43.0407885],[20.9418385,43.0351316],[20.9329005,43.0182967],[20.9161902,43.0120121],[20.9102383,43.0183597],[20.9028898,43.0201414],[20.8968027,43.0286289],[20.8907674,43.0297202],[20.886048,43.0260098],[20.8889118,43.0223479],[20.8867305,43.0197068],[20.8937373,43.0137117],[20.8891561,43.0062276],[20.8679459,43.0013274],[20.8578589,43.0026202],[20.8362181,42.9931057],[20.8380599,42.9903389],[20.8334958,42.9892445],[20.8368136,42.9870665],[20.8333941,42.984298],[20.8255516,42.9867115],[20.8226084,42.983662],[20.8991,42.950807],[20.8910019,42.9270083],[20.8804962,42.9147173],[20.8700249,42.9075305],[20.8531489,42.9055661],[20.859698,42.9019223],[20.872011,42.902261],[20.871365,42.8927598],[20.8511148,42.8845674],[20.854698,42.8899586],[20.8432519,42.8898335],[20.8366197,42.8843024],[20.8256226,42.8872346],[20.8182008,42.8993068]]]}},{"type":"Feature","properties":{"name":"Mitrovicë e Veriut"},"geometry":{"type":"Polygon","coordinates":[[[20.8182008,42.8993068],[20.8264488,42.8865664],[20.8366197,42.8843024],[20.8432519,42.8898335],[20.854698,42.8899586],[20.8511148,42.8845674],[20.871365,42.8927598],[20.8729196,42.90096],[20.859698,42.9019223],[20.8438835,42.9098145],[20.8517585,42.9028437],[20.8529917,42.8933108],[20.8313705,42.8981598],[20.8274222,42.9015629],[20.8182008,42.8993068]]]}},{"type":"Feature","properties":{"name":"Novobërdë"},"geometry":{"type":"Polygon","coordinates":[[[21.4616749,42.6245169],[21.4365921,42.6151624],[21.4297747,42.6299726],[21.4181039,42.629592],[21.4148409,42.6187552],[21.4104648,42.6269304],[21.4072723,42.6231606],[21.4059362,42.6301014],[21.3983699,42.6332622],[21.3887069,42.6262693],[21.3861106,42.6204291],[21.3774796,42.6215399],[21.3641438,42.615234],[21.3571203,42.5922246],[21.3456272,42.5812459],[21.3423112,42.5857808],[21.3378537,42.5855296],[21.3382337,42.5794137],[21.3324147,42.5720264],[21.3243943,42.5695045],[21.3222845,42.5629668],[21.3295517,42.5578948],[21.3326078,42.5602811],[21.3513332,42.5589333],[21.362601,42.566525],[21.3734601,42.5678369],[21.3779957,42.565475],[21.380195,42.5590207],[21.3921775,42.5536619],[21.3916089,42.5508044],[21.4011287,42.5396689],[21.3982748,42.5365741],[21.4144266,42.5362275],[21.4310801,42.5426988],[21.4340103,42.5466682],[21.42672,42.5595818],[21.4291585,42.565633],[21.4265289,42.5733434],[21.431826,42.5773507],[21.455147,42.5764039],[21.4661973,42.5661513],[21.4726593,42.5726317],[21.482157,42.575083],[21.4947692,42.5658256],[21.4964265,42.57246],[21.5067838,42.5761639],[21.5033293,42.5854169],[21.5061734,42.5907893],[21.4936875,42.5960205],[21.4891087,42.594312],[21.4839407,42.6073496],[21.487004,42.6090954],[21.4866066,42.6158871],[21.471598,42.6186006],[21.4676297,42.62411],[21.4616749,42.6245169]]]}},{"type":"Feature","properties":{"name":"Obiliq"},"geometry":{"type":"Polygon","coordinates":[[[21.1166202,42.6606271],[21.1179066,42.6713412],[21.1233655,42.6711758],[21.1336631,42.6855276],[21.1316305,42.6886983],[21.1220012,42.6899472],[21.1155519,42.6964756],[21.1155974,42.7019002],[21.1252044,42.6975706],[21.1308589,42.6985829],[21.1227177,42.7083236],[21.1171211,42.7065415],[21.1160929,42.7023912],[21.1085469,42.7087448],[21.1175376,42.7190236],[21.1176005,42.7233232],[21.1087429,42.7270044],[21.1112168,42.7278469],[21.1115785,42.7293104],[21.1089683,42.7274829],[21.0984672,42.7326054],[21.0924457,42.7492897],[21.1007655,42.7598709],[21.0985532,42.7619852],[21.109355,42.7656059],[21.1156407,42.778101],[21.1263206,42.786608],[21.1190635,42.7999917],[21.1203347,42.8056909],[21.1080882,42.8034576],[21.099348,42.7958461],[21.0859343,42.7954445],[21.0807519,42.7880316],[21.0686212,42.7803067],[21.0662062,42.7701158],[21.0726404,42.7704558],[21.0733385,42.7655119],[21.0794301,42.7596338],[21.0783928,42.7554315],[21.0706268,42.7501155],[21.0737025,42.7460984],[21.0591612,42.7367398],[21.0674296,42.727546],[21.0517035,42.7291405],[21.0507057,42.7178038],[21.0272929,42.7128032],[21.028812,42.707652],[21.0116565,42.7033232],[21.0118912,42.6990119],[20.9951029,42.6893259],[20.9830565,42.6904637],[20.9744608,42.6856507],[20.9713197,42.6938286],[20.9608945,42.6862457],[20.9627469,42.6694719],[20.9715601,42.6482219],[20.9963725,42.6538878],[21.0018805,42.6517361],[20.9976551,42.6570555],[21.0048111,42.6603488],[21.0062816,42.6661338],[21.0091674,42.6667511],[21.0112105,42.6608558],[21.0195561,42.6602368],[21.022638,42.6511139],[21.0461171,42.6501818],[21.0491369,42.6469329],[21.054215,42.6478465],[21.0575899,42.6551384],[21.0659647,42.6582075],[21.0727282,42.6574137],[21.0729697,42.6474849],[21.0774294,42.6518953],[21.0766429,42.6551923],[21.0875216,42.6524282],[21.0879026,42.6557898],[21.0911899,42.6561539],[21.0903339,42.6596946],[21.1166202,42.6606271]]]}},{"type":"Feature","properties":{"name":"Partesh"},"geometry":{"type":"Polygon","coordinates":[[[21.4128747,42.4050292],[21.4137121,42.3905802],[21.4208455,42.3824199],[21.4301514,42.3831341],[21.4323975,42.3796725],[21.4437089,42.382588],[21.4489894,42.3930494],[21.4598901,42.3915647],[21.4674286,42.4002109],[21.4761633,42.3986689],[21.4743512,42.4036501],[21.5052177,42.391772],[21.5178667,42.3925928],[21.5279438,42.3850484],[21.5335636,42.38422],[21.5395162,42.3877792],[21.5335513,42.3905828],[21.5344401,42.396262],[21.5392315,42.3967794],[21.5351406,42.3976415],[21.5349912,42.4034075],[21.531526,42.405511],[21.5372048,42.4073662],[21.5392409,42.41209],[21.525062,42.4106829],[21.5092646,42.4268553],[21.4875185,42.4217274],[21.4823978,42.4145443],[21.4692539,42.422967],[21.4591574,42.4167271],[21.4550664,42.4180785],[21.4524979,42.4241943],[21.4355342,42.4262058],[21.4475724,42.4182009],[21.4456017,42.4157875],[21.4496365,42.4148429],[21.4479798,42.4081188],[21.4280588,42.408797],[21.4249486,42.4042661],[21.4150949,42.4020246],[21.4128747,42.4050292]]]}},{"type":"Feature","properties":{"name":"Pejë"},"geometry":{"type":"Polygon","coordinates":[[[20.3200391,42.8260501],[20.3154933,42.8358223],[20.2979152,42.8359962],[20.2937889,42.8253152],[20.2853056,42.8259266],[20.2807491,42.8304085],[20.2750701,42.8253605],[20.2740586,42.8199988],[20.2547746,42.8142939],[20.2523091,42.8107144],[20.2627268,42.8039854],[20.2661589,42.7789023],[20.255308,42.7703274],[20.2504401,42.7589696],[20.2366508,42.757218],[20.2336747,42.7531365],[20.2004314,42.7513151],[20.1990688,42.7480432],[20.1961237,42.7515215],[20.1926776,42.7471221],[20.1550913,42.7688441],[20.1490563,42.7638017],[20.1469052,42.7552951],[20.1260162,42.7626075],[20.1140887,42.7632849],[20.0967091,42.7763097],[20.0698183,42.7744615],[20.0604327,42.7789249],[20.0426765,42.7743956],[20.032917,42.7685617],[20.0322556,42.7649059],[20.0242256,42.7648251],[20.0224693,42.7518909],[20.0127002,42.7415708],[20.0145879,42.7261932],[20.0301898,42.7197317],[20.0213862,42.7131414],[20.0160791,42.7129921],[20.0151823,42.7099285],[20.0319155,42.7107807],[20.0321322,42.6976673],[20.0436823,42.6954003],[20.0535765,42.6847604],[20.062725,42.6847021],[20.0671506,42.6801517],[20.0823587,42.6796394],[20.0884414,42.6688505],[20.1119623,42.6553877],[20.1189471,42.6630851],[20.1347452,42.6548389],[20.1546803,42.6516793],[20.1644311,42.6532278],[20.173678,42.6483023],[20.1985402,42.6520242],[20.1904315,42.6428183],[20.1872089,42.6284304],[20.2034777,42.6237381],[20.2073544,42.6162009],[20.204794,42.6137296],[20.2109557,42.60799],[20.2537364,42.6049448],[20.285135,42.5918657],[20.2928024,42.5997607],[20.2969973,42.5986591],[20.3008352,42.6029224],[20.3076069,42.6040805],[20.3080654,42.6068337],[20.3051862,42.6048709],[20.3064142,42.6102137],[20.3121992,42.6121638],[20.3213244,42.6010992],[20.3278662,42.6028322],[20.344393,42.590822],[20.3376813,42.5879976],[20.3364257,42.5816493],[20.3409243,42.5808378],[20.3381964,42.5785223],[20.3418722,42.570844],[20.3562898,42.572422],[20.3608627,42.5674614],[20.3502442,42.5630169],[20.3521122,42.5559416],[20.3594078,42.5533455],[20.3714636,42.5512671],[20.4106662,42.5635964],[20.4450333,42.557893],[20.4703203,42.5630237],[20.4872883,42.5609491],[20.488021,42.5566695],[20.4923277,42.5564984],[20.4957034,42.5513011],[20.505741,42.5521553],[20.506957,42.5474485],[20.5165904,42.5459798],[20.5233852,42.5533031],[20.515554,42.5617906],[20.5158594,42.5665167],[20.5087805,42.5691514],[20.5071905,42.57428],[20.4905654,42.5821385],[20.4885666,42.5931987],[20.4718439,42.5940041],[20.4764263,42.600341],[20.4745936,42.6144378],[20.4706412,42.6176669],[20.4719994,42.621181],[20.4811052,42.6251532],[20.4963121,42.6448189],[20.4875427,42.6447218],[20.4784654,42.6582778],[20.4701479,42.6601506],[20.4675689,42.6742939],[20.470357,42.6768106],[20.4641632,42.6778691],[20.4661237,42.6829333],[20.4614487,42.6827409],[20.4557025,42.6878496],[20.4481461,42.6841766],[20.4445043,42.6899147],[20.427085,42.6862763],[20.395713,42.6902763],[20.3919239,42.6997326],[20.3770977,42.7120353],[20.3584173,42.7188808],[20.3571208,42.7223417],[20.3497636,42.7226668],[20.3416446,42.7290889],[20.3417156,42.7321047],[20.3463993,42.7331255],[20.3474042,42.7367828],[20.3443822,42.7397873],[20.3475067,42.7446527],[20.3405426,42.7522952],[20.338502,42.764518],[20.3343625,42.7692829],[20.3353527,42.793363],[20.3409506,42.8123698],[20.3329663,42.8236422],[20.3200391,42.8260501]]]}},{"type":"Feature","properties":{"name":"Podujevë"},"geometry":{"type":"Polygon","coordinates":[[[21.449954,42.7497568],[21.4037329,42.7433819],[21.3983665,42.7446027],[21.3943567,42.7518543],[21.396255,42.7612002],[21.4029148,42.7669491],[21.4072969,42.7666327],[21.4111038,42.7760503],[21.4081916,42.7875842],[21.4128686,42.7902056],[21.40634,42.7940997],[21.4095176,42.8045686],[21.4225191,42.8057976],[21.4246112,42.8105517],[21.4178091,42.8175247],[21.4171043,42.8259008],[21.4240098,42.8326159],[21.4234522,42.8472158],[21.4369411,42.851656],[21.4352274,42.8728704],[21.4028873,42.8750853],[21.3944213,42.871987],[21.3946951,42.8679474],[21.3854504,42.8665447],[21.3799367,42.872884],[21.3638558,42.8716316],[21.3564724,42.8792387],[21.3498752,42.8813752],[21.3512153,42.8877998],[21.3438875,42.8916594],[21.3433855,42.8987965],[21.3307891,42.9029746],[21.3146806,42.9023899],[21.3044314,42.9062999],[21.2992177,42.901551],[21.2921463,42.9035344],[21.2820941,42.8956528],[21.2741445,42.8950592],[21.2705928,42.8975549],[21.2697766,42.9104097],[21.2509203,42.9315675],[21.245276,42.933867],[21.2352231,42.9521919],[21.2345573,42.9597117],[21.2398443,42.966131],[21.2401846,42.9748551],[21.244479,42.9813128],[21.238486,42.9899917],[21.2387265,43.0059583],[21.2257148,43.017823],[21.2257036,43.0209709],[21.206156,43.0251021],[21.1977017,43.0238236],[21.1923695,43.0155795],[21.1929392,43.0081792],[21.1754324,43.0002993],[21.1713713,43.0011465],[21.1721973,43.0038347],[21.1634445,43.015305],[21.1677096,43.0269268],[21.1558668,43.0301449],[21.1522309,43.0408065],[21.152898,43.0607029],[21.1394875,43.0825296],[21.1497206,43.0917737],[21.1390629,43.1117268],[21.135235,43.1138724],[21.1167643,43.1112187],[21.1053801,43.118238],[21.1021147,43.1258766],[21.0918958,43.1355807],[21.0821629,43.1289035],[21.0828871,43.1176213],[21.0798795,43.1148141],[21.0544855,43.1074804],[21.0286421,43.1293675],[20.998914,43.1384166],[21.0008053,43.1019508],[21.0056282,43.0938944],[21.0063234,43.0760808],[21.0027179,43.0710687],[21.0127904,43.0678737],[21.0148701,43.0580437],[21.0205052,43.0573477],[21.0309907,43.0458779],[21.0328449,43.036988],[21.0291218,43.0309684],[21.0417127,43.0285692],[21.0585519,43.0170516],[21.0804472,42.9782103],[21.0794411,42.9751302],[21.0865195,42.9703577],[21.0822569,42.9619153],[21.0850752,42.9578196],[21.0812309,42.9397706],[21.0728952,42.9248279],[21.0687003,42.9228641],[21.0700219,42.9154822],[21.0580886,42.9137478],[21.0622382,42.9088321],[21.0594558,42.9022523],[21.0746923,42.8881596],[21.0729701,42.8833501],[21.0778515,42.8741141],[21.0777288,42.8663542],[21.0821221,42.8635617],[21.0789158,42.8552863],[21.0849666,42.8493099],[21.0818552,42.837565],[21.0879365,42.839814],[21.0981518,42.8364628],[21.1128888,42.8250025],[21.1194141,42.8133954],[21.1176081,42.8104184],[21.1215954,42.8038261],[21.1190635,42.7999917],[21.1347627,42.7751422],[21.1472333,42.7740973],[21.1467224,42.7770868],[21.1544162,42.7810504],[21.1536161,42.7844903],[21.1630569,42.7882314],[21.161753,42.7904787],[21.1658388,42.7918153],[21.1670195,42.7983426],[21.1677639,42.7948544],[21.1812595,42.7951841],[21.1844061,42.7783603],[21.1978102,42.7810798],[21.204267,42.7756186],[21.2098046,42.7772689],[21.2115464,42.7726658],[21.2157308,42.7715135],[21.2142738,42.7625692],[21.2196577,42.7642977],[21.2244156,42.7807809],[21.2296517,42.7822227],[21.2509918,42.773108],[21.2534929,42.7772577],[21.2478754,42.7823985],[21.2522427,42.7880764],[21.2494994,42.7924677],[21.2690355,42.7903221],[21.267935,42.7943043],[21.271582,42.7978787],[21.2869417,42.8016767],[21.2910778,42.8093221],[21.3080875,42.8054639],[21.3240478,42.814583],[21.3314594,42.8061615],[21.3359562,42.8082014],[21.344293,42.8044633],[21.3454886,42.7923999],[21.3430678,42.7887287],[21.3540942,42.7883361],[21.3620032,42.782388],[21.3691131,42.7830108],[21.382152,42.7770521],[21.3854463,42.7729003],[21.3849854,42.7644728],[21.3902476,42.7617484],[21.3867811,42.7554388],[21.3880084,42.751312],[21.3974344,42.7430639],[21.4126458,42.7413609],[21.4367695,42.745898],[21.4475771,42.744984],[21.449954,42.7497568]]]}},{"type":"Feature","properties":{"name":"Prishtinë"},"geometry":{"type":"MultiPolygon","coordinates":[[[[21.5063733,42.7324098],[21.4791407,42.7474838],[21.474577,42.7462292],[21.4672583,42.7361513],[21.4517618,42.7447663],[21.449954,42.7497568],[21.4475771,42.744984],[21.4367695,42.745898],[21.4126458,42.7413609],[21.3974344,42.7430639],[21.3880084,42.751312],[21.3867811,42.7554388],[21.3902476,42.7617484],[21.3849854,42.7644728],[21.3854463,42.7729003],[21.382152,42.7770521],[21.3691131,42.7830108],[21.3620032,42.782388],[21.3540942,42.7883361],[21.3430678,42.7887287],[21.3454886,42.7923999],[21.344293,42.8044633],[21.3359562,42.8082014],[21.3314594,42.8061615],[21.3240478,42.814583],[21.3080875,42.8054639],[21.2910778,42.8093221],[21.2869417,42.8016767],[21.271582,42.7978787],[21.267935,42.7943043],[21.2690355,42.7903221],[21.2494994,42.7924677],[21.2522427,42.7880764],[21.2478754,42.7823985],[21.2534929,42.7772577],[21.2509918,42.773108],[21.2296517,42.7822227],[21.2244156,42.7807809],[21.2196577,42.7642977],[21.2142738,42.7625692],[21.2157308,42.7715135],[21.2115464,42.7726658],[21.2098046,42.7772689],[21.204267,42.7756186],[21.1978102,42.7810798],[21.1844061,42.7783603],[21.1812595,42.7951841],[21.1677639,42.7948544],[21.1670195,42.7983426],[21.1658388,42.7918153],[21.161753,42.7904787],[21.1630569,42.7882314],[21.1536161,42.7844903],[21.1544162,42.7810504],[21.1467224,42.7770868],[21.1472333,42.7740973],[21.1349216,42.7750085],[21.1263206,42.786608],[21.123236,42.785308],[21.1116474,42.7728184],[21.109355,42.7656059],[21.0985532,42.7619852],[21.1007655,42.7598709],[21.0924457,42.7492897],[21.0984672,42.7326054],[21.1089683,42.7274829],[21.1115785,42.7293104],[21.1087429,42.7270044],[21.1176005,42.7233232],[21.1175376,42.7190236],[21.1085469,42.7087448],[21.1160929,42.7023912],[21.1171211,42.7065415],[21.1227177,42.7083236],[21.1308589,42.6985829],[21.1252044,42.6975706],[21.1155974,42.7019002],[21.1155519,42.6964756],[21.1220012,42.6899472],[21.1325629,42.6883391],[21.1336516,42.6854317],[21.1233655,42.6711758],[21.1179066,42.6713412],[21.1165942,42.6606828],[21.1208951,42.6604287],[21.1234359,42.6523612],[21.1088551,42.6468255],[21.1137833,42.6386325],[21.1358365,42.6418687],[21.1353186,42.6382611],[21.122549,42.6335232],[21.1296576,42.6269862],[21.1267712,42.6138411],[21.1333735,42.611663],[21.1329751,42.6094369],[21.1377804,42.6087008],[21.1492804,42.6253294],[21.1585916,42.6230501],[21.1586189,42.6175597],[21.1634287,42.614937],[21.1677041,42.6180754],[21.166813,42.6015241],[21.1830342,42.6052945],[21.2209386,42.6239424],[21.2293477,42.6234008],[21.2361714,42.6151864],[21.2447828,42.6129937],[21.2707365,42.6221504],[21.2863589,42.6228222],[21.2930831,42.6153263],[21.3114925,42.6095878],[21.3111547,42.6041869],[21.3158984,42.6031012],[21.3218237,42.5879419],[21.3262159,42.5895518],[21.3288098,42.5961722],[21.333699,42.5967572],[21.3454482,42.5812487],[21.3571203,42.5922246],[21.3622102,42.6133669],[21.3741113,42.6207067],[21.3861106,42.6204291],[21.3887069,42.6262693],[21.3983699,42.6332622],[21.4059362,42.6301014],[21.4072723,42.6231606],[21.4104648,42.6269304],[21.4148409,42.6187552],[21.4181039,42.629592],[21.4297747,42.6299726],[21.4365921,42.6151624],[21.4616749,42.6245169],[21.459804,42.6287095],[21.4628758,42.6378356],[21.4599651,42.6395089],[21.4710048,42.6436435],[21.4673228,42.6569576],[21.4738392,42.6582881],[21.4508507,42.6741741],[21.4331336,42.6775337],[21.4308187,42.6863154],[21.4333236,42.6897919],[21.4192647,42.6938313],[21.4156043,42.7005082],[21.4234259,42.7046637],[21.4320944,42.7032124],[21.4366917,42.7083856],[21.4479238,42.6981639],[21.4782132,42.6951147],[21.484591,42.7081945],[21.4886916,42.7085673],[21.4846731,42.7134174],[21.4947209,42.7179284],[21.5063733,42.7324098]]],[[[21.233715,42.5974985],[21.2260002,42.5895944],[21.2249917,42.5747824],[21.2303072,42.5725574],[21.2389307,42.5778067],[21.2454518,42.5776246],[21.2451715,42.5825096],[21.2396951,42.5848819],[21.240038,42.5947196],[21.233715,42.5974985]]]]}},{"type":"Feature","properties":{"name":"Prizren"},"geometry":{"type":"Polygon","coordinates":[[[20.7898009,42.0812554],[20.8341876,42.0861731],[20.8422994,42.0975924],[20.8486133,42.0992731],[20.8782968,42.0961962],[20.9092476,42.0975068],[20.9023038,42.1048186],[20.9188869,42.1268504],[20.9278133,42.1279963],[20.948241,42.1388169],[20.9672603,42.1366544],[20.9815216,42.1392812],[20.9825546,42.1604615],[20.9684671,42.1822959],[20.9593048,42.1872898],[20.9344649,42.193579],[20.8756961,42.2000778],[20.8642005,42.2042136],[20.8609664,42.2172405],[20.8719237,42.2201092],[20.8695261,42.2337979],[20.8788151,42.2450592],[20.876178,42.251771],[20.8720661,42.2533327],[20.8736342,42.2569541],[20.8684213,42.2571749],[20.8587602,42.2687363],[20.8186164,42.2713707],[20.8116475,42.2734656],[20.8090519,42.2802589],[20.7942142,42.2873914],[20.7938548,42.2920453],[20.7760886,42.2896798],[20.7660157,42.3004415],[20.769808,42.3066123],[20.7659082,42.311586],[20.7719897,42.3156278],[20.755884,42.3118912],[20.746992,42.3225905],[20.7395803,42.3239329],[20.731706,42.3167745],[20.7363368,42.3112304],[20.7313267,42.3105777],[20.7325555,42.3068079],[20.7231294,42.306254],[20.7260916,42.3078569],[20.7248042,42.3104895],[20.7099652,42.3140108],[20.7052697,42.3207272],[20.6997384,42.3194388],[20.6955024,42.3133533],[20.6948258,42.3164373],[20.6821515,42.3228914],[20.6865628,42.3272795],[20.6838819,42.3290152],[20.686759,42.3353619],[20.6792694,42.3414607],[20.6724688,42.3411361],[20.6715234,42.3442704],[20.6569457,42.3361282],[20.6596977,42.3318827],[20.6472781,42.3245692],[20.6375052,42.3132128],[20.6325456,42.3158874],[20.6284839,42.3130612],[20.6244739,42.30554],[20.6253362,42.2997341],[20.6040031,42.3074764],[20.6032316,42.3138769],[20.5965395,42.3197691],[20.5837326,42.3157671],[20.5812857,42.3100651],[20.5685937,42.3075254],[20.5650851,42.3037855],[20.5571065,42.3153017],[20.5515119,42.3165519],[20.5583215,42.3099986],[20.5537028,42.3048977],[20.5591203,42.3001161],[20.5588874,42.2956073],[20.5502257,42.2924293],[20.5444639,42.2948423],[20.5352731,42.2852718],[20.5123962,42.2768545],[20.508329,42.2704017],[20.4955305,42.2698965],[20.4860526,42.2602832],[20.4759701,42.2571778],[20.4770351,42.253308],[20.4977802,42.2399926],[20.5020616,42.2284752],[20.5145394,42.2241133],[20.5240482,42.2108402],[20.5318079,42.1853888],[20.5421313,42.1723887],[20.5435021,42.165662],[20.5470433,42.1642279],[20.5436293,42.1607218],[20.5583718,42.1464877],[20.5554355,42.1396468],[20.566866,42.1255224],[20.5682078,42.1206717],[20.5610886,42.1087886],[20.5629444,42.1059461],[20.5770848,42.1203423],[20.5987479,42.1254266],[20.6078355,42.1349411],[20.6217252,42.1432426],[20.63724,42.1473368],[20.6410329,42.1514816],[20.6571189,42.1502861],[20.6669587,42.1551678],[20.6797035,42.1548117],[20.6919518,42.1501591],[20.7065864,42.153282],[20.7100034,42.1520408],[20.7129952,42.1446014],[20.7298975,42.1464908],[20.7382168,42.1435466],[20.7387659,42.14026],[20.7477035,42.1415548],[20.7494007,42.1453994],[20.7662989,42.1539253],[20.783016,42.1254019],[20.7898009,42.0812554]]]}},{"type":"Feature","properties":{"name":"Rahovec"},"geometry":{"type":"Polygon","coordinates":[[[20.5388797,42.5197331],[20.5347222,42.5153475],[20.5367474,42.5101664],[20.5216351,42.5113351],[20.5155514,42.5080262],[20.5058844,42.4880317],[20.5160845,42.4809223],[20.5092168,42.4800613],[20.5093519,42.4746614],[20.4998699,42.4707987],[20.5060537,42.4657379],[20.5031457,42.4595334],[20.5096502,42.454094],[20.5128219,42.4453736],[20.5075074,42.4405696],[20.5157779,42.434399],[20.5181544,42.4270727],[20.5150558,42.4238389],[20.5172743,42.4205258],[20.5095302,42.4159308],[20.5115641,42.4126056],[20.5031875,42.4076353],[20.5116121,42.3976452],[20.518815,42.3979355],[20.5166933,42.3889248],[20.5111974,42.3848715],[20.5131798,42.3751529],[20.5223479,42.3734709],[20.5207744,42.3694676],[20.526811,42.3691529],[20.5274967,42.3635733],[20.5393543,42.3541856],[20.5402018,42.3495067],[20.551859,42.3518866],[20.5552794,42.3458191],[20.5659465,42.3435296],[20.5701604,42.3386879],[20.5809608,42.3392804],[20.6047291,42.3327325],[20.5984143,42.3302239],[20.6001413,42.3258409],[20.5924609,42.3194538],[20.5980688,42.3191517],[20.6035917,42.3131887],[20.6040031,42.3074764],[20.6129773,42.3025654],[20.6253362,42.2997341],[20.6244739,42.30554],[20.6284839,42.3130612],[20.6325456,42.3158874],[20.6375052,42.3132128],[20.6472781,42.3245692],[20.6596977,42.3318827],[20.6569457,42.3361282],[20.6714108,42.344274],[20.6724688,42.3411361],[20.6792694,42.3414607],[20.686759,42.3353619],[20.6838819,42.3290152],[20.6865628,42.3272795],[20.6821515,42.3228914],[20.6948258,42.3164373],[20.6955024,42.3133533],[20.6997384,42.3194388],[20.7024756,42.3185519],[20.7095437,42.3293251],[20.7025602,42.3332044],[20.7051848,42.3344703],[20.7033378,42.3424421],[20.7223063,42.3565762],[20.7203275,42.3617566],[20.7261101,42.3758973],[20.7234372,42.3981092],[20.7299692,42.4039664],[20.7252644,42.4073175],[20.7124682,42.4034117],[20.7090293,42.4175143],[20.6963432,42.4137671],[20.6867009,42.415746],[20.6878641,42.4224273],[20.6914996,42.4246973],[20.6909927,42.4300179],[20.6954102,42.4314936],[20.6724519,42.4422554],[20.6646052,42.451404],[20.6641526,42.4581976],[20.6710647,42.4657307],[20.670087,42.4719592],[20.6642284,42.4750874],[20.6655533,42.4800813],[20.6623636,42.4879001],[20.6625696,42.4884656],[20.6642536,42.4893173],[20.6645157,42.4895237],[20.6644925,42.4895786],[20.6509768,42.4932733],[20.6459002,42.4875797],[20.6344488,42.4827513],[20.6096766,42.4880016],[20.604279,42.4813963],[20.597147,42.4873331],[20.5883136,42.4894495],[20.5733455,42.5016776],[20.563717,42.5042536],[20.5549662,42.5179965],[20.5566203,42.5240339],[20.5617183,42.5230584],[20.5577143,42.5269676],[20.5502404,42.5199937],[20.5388797,42.5197331]]]}},{"type":"Feature","properties":{"name":"Ranillug"},"geometry":{"type":"Polygon","coordinates":[[[21.5402733,42.5117907],[21.5467481,42.4997699],[21.5506483,42.5000637],[21.5524687,42.4827122],[21.558824,42.4842589],[21.5633051,42.4928843],[21.5762548,42.4978285],[21.5856318,42.4974726],[21.5842049,42.4918559],[21.5893547,42.4898464],[21.5847621,42.4836684],[21.565805,42.4824977],[21.553885,42.478324],[21.5515271,42.4770407],[21.5531465,42.4729203],[21.5696919,42.4796058],[21.5938415,42.4800677],[21.5889205,42.471456],[21.5963789,42.4676287],[21.5973394,42.4633292],[21.6204314,42.4602169],[21.6228143,42.45327],[21.6421108,42.4686718],[21.6572493,42.4757278],[21.6597729,42.4799824],[21.6582127,42.4837933],[21.6714191,42.4845905],[21.6672295,42.493018],[21.6906605,42.5023823],[21.6936958,42.5052938],[21.6915455,42.5132275],[21.6946867,42.515587],[21.6622112,42.5275541],[21.6446373,42.528329],[21.6182444,42.5445985],[21.6107557,42.5386699],[21.5809724,42.5354128],[21.5580127,42.540077],[21.5497515,42.5438871],[21.5411899,42.55353],[21.5112565,42.5496572],[21.5191326,42.5456743],[21.5230925,42.5373364],[21.5265368,42.5387474],[21.5371848,42.5308655],[21.5352117,42.5286326],[21.5382683,42.5264834],[21.5379073,42.5219805],[21.545934,42.5235211],[21.5465962,42.5266977],[21.549686,42.5254831],[21.5436619,42.5197754],[21.5485551,42.5150061],[21.5402733,42.5117907]]]}},{"type":"Feature","properties":{"name":"Skënderaj"},"geometry":{"type":"Polygon","coordinates":[[[20.6184112,42.7275755],[20.622793,42.7073478],[20.6342367,42.7053779],[20.6329935,42.6972853],[20.6356707,42.692862],[20.6466596,42.6778686],[20.653503,42.6747119],[20.6761503,42.6750286],[20.681953,42.6793704],[20.6846923,42.68641],[20.6936835,42.6868778],[20.6927417,42.684882],[20.7019429,42.6774826],[20.7008982,42.6708454],[20.7047894,42.6645921],[20.6959006,42.6481341],[20.6973761,42.6348271],[20.7027464,42.6307142],[20.7262205,42.6300923],[20.7384117,42.6169207],[20.739258,42.6075431],[20.7473484,42.6045272],[20.7585347,42.6066333],[20.7673753,42.6132915],[20.7639992,42.6324938],[20.7688258,42.6405216],[20.7670135,42.6418336],[20.7740101,42.648734],[20.7694527,42.6597605],[20.7858335,42.6594847],[20.7997488,42.6651301],[20.8012488,42.6603356],[20.8041008,42.6645122],[20.8135178,42.6641749],[20.8233614,42.6694751],[20.8188752,42.6729159],[20.8154458,42.6869044],[20.8125609,42.688641],[20.8153513,42.6923804],[20.8357864,42.6955101],[20.8356098,42.7013013],[20.8466627,42.7066127],[20.8567861,42.7004534],[20.8658454,42.7020601],[20.8708696,42.6916354],[20.8752066,42.691165],[20.8795161,42.6848152],[20.8917499,42.701007],[20.9102894,42.7167797],[20.923701,42.7122855],[20.9453434,42.723586],[20.9269948,42.7444484],[20.9091235,42.7488523],[20.9003097,42.7543227],[20.8949636,42.7537391],[20.8973038,42.7520135],[20.8927349,42.7507515],[20.8896146,42.7443415],[20.8812095,42.7467156],[20.8730555,42.743804],[20.8606905,42.7512771],[20.8611736,42.7571312],[20.8694417,42.7638769],[20.8685248,42.7730923],[20.8570376,42.7769473],[20.861089,42.7800743],[20.8562428,42.7870215],[20.8618905,42.792134],[20.8611052,42.7960266],[20.8641614,42.7962621],[20.8460483,42.8179175],[20.8429668,42.8190754],[20.8352714,42.8135999],[20.8237879,42.823559],[20.8079351,42.8195633],[20.7958629,42.8242229],[20.7840268,42.8179668],[20.780907,42.8260023],[20.7667198,42.8334288],[20.7643373,42.8417916],[20.756554,42.8395878],[20.7532289,42.8433612],[20.7450016,42.8401006],[20.7536737,42.8195752],[20.7491739,42.8092293],[20.7355552,42.8214581],[20.7128899,42.8297872],[20.7080536,42.842569],[20.7013625,42.8469182],[20.7010342,42.8524278],[20.7041449,42.85371],[20.6965981,42.860492],[20.6855336,42.8619887],[20.682311,42.8581242],[20.6689265,42.8539296],[20.6593525,42.8568687],[20.6529614,42.8638537],[20.653113,42.8556337],[20.6575347,42.8473745],[20.6495582,42.8412633],[20.6499778,42.8273465],[20.6424414,42.8145518],[20.6448394,42.7942987],[20.6395826,42.7819848],[20.6288214,42.7780858],[20.6308441,42.7745098],[20.6363617,42.773801],[20.6349486,42.7700592],[20.6423003,42.7588223],[20.6514037,42.7516888],[20.6513997,42.7481995],[20.6439471,42.7386685],[20.6370424,42.7362814],[20.6408131,42.7314827],[20.6379543,42.7263181],[20.6328325,42.7239342],[20.6184112,42.7275755]]]}},{"type":"Feature","properties":{"name":"Shtime"},"geometry":{"type":"Polygon","coordinates":[[[21.1381613,42.4608942],[21.1314186,42.4725525],[21.107167,42.4679681],[21.0984706,42.4692915],[21.0943567,42.4743351],[21.0972368,42.4734011],[21.0956692,42.475514],[21.0989155,42.4779829],[21.0899251,42.4746068],[21.092738,42.4784516],[21.0896046,42.4840991],[21.0845412,42.4764056],[21.0687935,42.4716861],[21.0766033,42.47117],[21.0661819,42.4696483],[21.0520504,42.4711017],[21.0426019,42.4776065],[21.0198012,42.4786502],[21.0152605,42.4752492],[21.0019818,42.4860067],[20.9942226,42.4797152],[20.9815981,42.4787605],[20.964203,42.4962323],[20.9434774,42.48712],[20.9328767,42.4766364],[20.9104274,42.4736796],[20.9010069,42.4620863],[20.9177615,42.4596284],[20.9482098,42.4492799],[20.9535293,42.4432336],[20.9615616,42.4402842],[20.955719,42.4331001],[20.9734881,42.4255432],[20.9423987,42.4081328],[20.9451194,42.4030374],[20.9571192,42.3963927],[20.9657228,42.3975787],[20.9585444,42.3889488],[20.9366755,42.3926751],[20.9305306,42.3877894],[20.9385832,42.3810445],[20.9686199,42.3733434],[20.9768399,42.3764637],[20.9760463,42.3812579],[20.9812495,42.3861209],[20.9906518,42.3858338],[20.9946222,42.3891823],[21.0061889,42.3831814],[21.0119883,42.3858685],[21.03812,42.3806032],[21.0420032,42.382731],[21.0434726,42.3885187],[21.076691,42.3972329],[21.0672866,42.4050124],[21.067993,42.4162084],[21.0826514,42.4171707],[21.0859141,42.4207472],[21.0830313,42.4236013],[21.0900729,42.4234268],[21.0954958,42.431077],[21.1000869,42.4308479],[21.1026668,42.4344488],[21.1124317,42.4352724],[21.1163539,42.4422775],[21.1102968,42.4492891],[21.1201315,42.4511384],[21.1248023,42.4563109],[21.1381613,42.4608942]]]}},{"type":"Feature","properties":{"name":"Shtërpcë"},"geometry":{"type":"Polygon","coordinates":[[[20.8788151,42.2450592],[20.8695261,42.2337979],[20.8719237,42.2201092],[20.8609664,42.2172405],[20.8642005,42.2042136],[20.8756961,42.2000778],[20.9390874,42.1928488],[20.9684671,42.1822959],[20.9825546,42.1604615],[20.9815216,42.1392812],[21.0278919,42.1549807],[21.0404232,42.1649061],[21.0515678,42.1653796],[21.0591342,42.1787735],[21.0697773,42.1878048],[21.0829952,42.1893311],[21.1035945,42.2048462],[21.1191426,42.2067745],[21.1233869,42.2251432],[21.1306973,42.238944],[21.1408532,42.2408326],[21.1458349,42.2453018],[21.1443835,42.2611061],[21.14673,42.2679164],[21.141028,42.2711717],[21.1427209,42.2755769],[21.1381405,42.2754457],[21.1335344,42.2819676],[21.1258635,42.2812637],[21.1062141,42.2887442],[21.0952653,42.3056063],[21.0755658,42.3118551],[21.0751103,42.3150459],[21.0658714,42.3209666],[21.0633556,42.3281676],[21.0472844,42.3326101],[21.0410391,42.3203563],[21.0442415,42.314314],[21.0357182,42.2984151],[21.0062623,42.312401],[20.9839506,42.3091906],[20.9762473,42.2959184],[20.9811194,42.2795487],[20.9457377,42.2721615],[20.942159,42.2656805],[20.9208353,42.2540698],[20.9066046,42.2422477],[20.889012,42.2401727],[20.8788151,42.2450592]]]}},{"type":"Feature","properties":{"name":"Suharekë"},"geometry":{"type":"Polygon","coordinates":[[[20.7172688,42.3504423],[20.7266385,42.346056],[20.7312665,42.3409945],[20.7288991,42.3406333],[20.7296583,42.3396601],[20.7480903,42.3340183],[20.7451235,42.3329458],[20.7461059,42.328978],[20.7505609,42.3278535],[20.746992,42.3225905],[20.7557412,42.3119629],[20.7719897,42.3156278],[20.7659082,42.311586],[20.769808,42.3066123],[20.7660157,42.3004415],[20.7760886,42.2896798],[20.7938548,42.2920453],[20.7942142,42.2873914],[20.8090519,42.2802589],[20.8116475,42.2734656],[20.8186164,42.2713707],[20.8587602,42.2687363],[20.8684213,42.2571749],[20.8736342,42.2569541],[20.8720661,42.2533327],[20.876178,42.251771],[20.8788151,42.2450592],[20.8882777,42.2403171],[20.9066046,42.2422477],[20.9208353,42.2540698],[20.942159,42.2656805],[20.9457377,42.2721615],[20.9811194,42.2795487],[20.9762473,42.2959184],[20.983846,42.3094458],[20.9782499,42.3184292],[20.9795692,42.3286213],[20.9746963,42.3336923],[20.9768404,42.3393483],[20.9719722,42.3489744],[20.970929,42.3642386],[20.9601003,42.3756843],[20.9385832,42.3810445],[20.9305306,42.3877894],[20.9366755,42.3926751],[20.9585444,42.3889488],[20.9657228,42.3975787],[20.9571192,42.3963927],[20.9451194,42.4030374],[20.9423987,42.4081328],[20.9734881,42.4255432],[20.955719,42.4331001],[20.9615616,42.4402842],[20.9535293,42.4432336],[20.9482098,42.4492799],[20.9177615,42.4596284],[20.9010069,42.4620863],[20.9104274,42.4736796],[20.9223903,42.476765],[20.906606,42.4761571],[20.9059059,42.4788575],[20.8990678,42.4798178],[20.8958058,42.4888392],[20.8822521,42.4909748],[20.8707958,42.488021],[20.8642476,42.4782226],[20.866166,42.4666754],[20.8808104,42.4635478],[20.8829571,42.4492854],[20.8772424,42.4440109],[20.8689041,42.4457731],[20.8473109,42.4418096],[20.8329798,42.4323815],[20.8226652,42.4297469],[20.8195708,42.434234],[20.8110303,42.4341105],[20.811248,42.4364137],[20.8023473,42.4390549],[20.7965691,42.4353217],[20.7931106,42.4389616],[20.7932481,42.4346785],[20.782892,42.4353336],[20.7804716,42.4303446],[20.7773449,42.4320997],[20.7713161,42.4197245],[20.763884,42.4185988],[20.7665833,42.4021912],[20.7515455,42.4056655],[20.7382511,42.3995738],[20.7287068,42.4032453],[20.7234372,42.3981092],[20.7261014,42.3758259],[20.7203275,42.3617566],[20.7223063,42.3565762],[20.7172688,42.3504423]]]}},{"type":"Feature","properties":{"name":"Viti"},"geometry":{"type":"Polygon","coordinates":[[[21.4128747,42.4050292],[21.3959089,42.409716],[21.392666,42.4169848],[21.3873489,42.4152195],[21.3775588,42.4182122],[21.3771957,42.4251218],[21.3703588,42.4276012],[21.3690545,42.4319724],[21.3785786,42.4334767],[21.3662022,42.439182],[21.3688548,42.4427714],[21.3653334,42.4442538],[21.353509,42.4352803],[21.3472477,42.4353089],[21.3483077,42.4315483],[21.325673,42.4283379],[21.3081546,42.41923],[21.2981345,42.3922371],[21.3103248,42.3807316],[21.3106955,42.3731845],[21.30769,42.36895],[21.2870234,42.3731108],[21.2623167,42.367968],[21.2603787,42.3649414],[21.251068,42.3660615],[21.2489747,42.3631318],[21.2516276,42.3602705],[21.2445949,42.3437152],[21.2573102,42.3354909],[21.2525683,42.3288218],[21.2696348,42.3249897],[21.2845771,42.3354727],[21.2876972,42.3330749],[21.283001,42.3256346],[21.2876701,42.3212397],[21.2818289,42.3214444],[21.2733082,42.3161374],[21.2574738,42.2975546],[21.2638309,42.2900272],[21.2618881,42.2843425],[21.2724323,42.2836222],[21.2723013,42.2795656],[21.2768631,42.2780805],[21.2884844,42.259328],[21.2988679,42.2580295],[21.3015334,42.2539677],[21.315237,42.256578],[21.3257323,42.2543616],[21.3347903,42.2480655],[21.339417,42.2490978],[21.3433028,42.2585797],[21.3628079,42.2428407],[21.379489,42.2368847],[21.3855825,42.2416942],[21.3821042,42.2452171],[21.4013844,42.249048],[21.4138062,42.2436934],[21.4193399,42.2448726],[21.4335886,42.2312582],[21.4444468,42.2349478],[21.4325841,42.2570994],[21.4405157,42.2623558],[21.4392944,42.2771267],[21.4414831,42.2791271],[21.4569327,42.2766345],[21.4715494,42.279783],[21.4891398,42.273016],[21.4994046,42.272355],[21.5043235,42.2789732],[21.5164485,42.2838001],[21.51004,42.298119],[21.5025073,42.3002775],[21.4990927,42.3080812],[21.5077797,42.3127776],[21.5074361,42.3179372],[21.5018483,42.3206018],[21.5000913,42.3170327],[21.496374,42.31754],[21.4911461,42.3208814],[21.4902267,42.3275898],[21.4775271,42.3382824],[21.4710981,42.3498428],[21.4693725,42.3627885],[21.4618347,42.3684517],[21.4383198,42.3716644],[21.4358935,42.3739356],[21.4420975,42.3763677],[21.4398994,42.381142],[21.4208455,42.3824199],[21.4130288,42.3918285],[21.4128747,42.4050292]],[[21.3552053,42.3707217],[21.359293,42.3735672],[21.3613529,42.3808192],[21.3695697,42.3784629],[21.3756702,42.3835882],[21.3836008,42.3777391],[21.3913968,42.365694],[21.4001439,42.371484],[21.3997052,42.3664445],[21.3937876,42.362522],[21.3948919,42.3532952],[21.4043344,42.356099],[21.4084257,42.3529709],[21.4105351,42.3469027],[21.4070809,42.3424871],[21.4262916,42.3353086],[21.4293138,42.3293314],[21.4374999,42.3262855],[21.4354592,42.3210856],[21.4407466,42.3199419],[21.4454167,42.3109855],[21.4219018,42.3121933],[21.4120585,42.3214117],[21.4013874,42.3241973],[21.4004035,42.3216363],[21.3963624,42.3239268],[21.3912156,42.3222495],[21.388451,42.3264696],[21.3800458,42.327825],[21.3721591,42.3352858],[21.3721107,42.3482164],[21.3599167,42.3501893],[21.3649568,42.359765],[21.3552053,42.3707217]]]}},{"type":"Feature","properties":{"name":"Vushtrri"},"geometry":{"type":"Polygon","coordinates":[[[20.9637903,42.7027841],[20.9744608,42.6856507],[20.9830565,42.6904637],[20.9951029,42.6893259],[21.0118912,42.6990119],[21.0116565,42.7033232],[21.028812,42.707652],[21.0272929,42.7128032],[21.0507057,42.7178038],[21.0517035,42.7291405],[21.0674296,42.727546],[21.0591612,42.7367398],[21.0737025,42.7460984],[21.0706268,42.7501155],[21.0783928,42.7554315],[21.0794301,42.7596338],[21.0733385,42.7655119],[21.0726404,42.7704558],[21.0662062,42.7701158],[21.0686212,42.7803067],[21.0807519,42.7880316],[21.0859343,42.7954445],[21.099348,42.7958461],[21.1080882,42.8034576],[21.1203347,42.8056909],[21.1127639,42.8251395],[21.0981518,42.8364628],[21.0879365,42.839814],[21.0818552,42.837565],[21.0849666,42.8493099],[21.0789158,42.8552863],[21.0821221,42.8635617],[21.0777288,42.8663542],[21.0778515,42.8741141],[21.0729701,42.8833501],[21.0742496,42.8894588],[21.0592292,42.9027155],[21.0622382,42.9088321],[21.0580886,42.9137478],[21.0699656,42.9153922],[21.0687003,42.9228641],[21.0776263,42.9317376],[21.0808037,42.94555],[21.0728882,42.9413527],[21.0661839,42.9430171],[21.0687424,42.9310463],[21.0577763,42.9319473],[21.0515938,42.9391081],[21.0338165,42.936611],[21.0175651,42.9263967],[21.0129986,42.9326965],[20.9901408,42.9438152],[20.9847628,42.9378767],[20.973447,42.9371808],[20.9844793,42.9217712],[20.980304,42.9086218],[20.9814433,42.9009093],[20.9778132,42.9020404],[20.9722642,42.8980046],[20.9732844,42.8954222],[20.9658246,42.8930456],[20.9578896,42.8942327],[20.9543054,42.9034041],[20.9438337,42.8988836],[20.9452375,42.8902385],[20.935678,42.8907654],[20.9342953,42.8798383],[20.9376498,42.8785659],[20.9307587,42.8521446],[20.9344195,42.8489316],[20.9250648,42.8409794],[20.9192276,42.8442409],[20.9141272,42.8425237],[20.9170661,42.8482416],[20.9062208,42.8461823],[20.9042408,42.8481769],[20.8967371,42.8403526],[20.8896938,42.8413166],[20.8811635,42.8375775],[20.8779935,42.8346966],[20.8796139,42.8318554],[20.8743218,42.8287427],[20.8599139,42.8272826],[20.8535674,42.8199013],[20.84624,42.8177015],[20.8641614,42.7962621],[20.8611052,42.7960266],[20.8618905,42.792134],[20.8562428,42.7870215],[20.861089,42.7800743],[20.8570376,42.7769473],[20.8685248,42.7730923],[20.8694417,42.7638769],[20.8611736,42.7571312],[20.8606905,42.7512771],[20.8730555,42.743804],[20.8812095,42.7467156],[20.8896146,42.7443415],[20.8927349,42.7507515],[20.8973038,42.7520135],[20.8949636,42.7537391],[20.9003097,42.7543227],[20.9091235,42.7488523],[20.9260496,42.7449914],[20.9451098,42.7243984],[20.9478021,42.7124643],[20.9637903,42.7027841]]]}},{"type":"Feature","properties":{"name":"Zubin Potok"},"geometry":{"type":"Polygon","coordinates":[[[20.6508671,42.8425967],[20.6575897,42.8479857],[20.653113,42.8556337],[20.6527705,42.8637761],[20.6593525,42.8568687],[20.6689265,42.8539296],[20.682311,42.8581242],[20.6855336,42.8619887],[20.694784,42.8614124],[20.7041449,42.85371],[20.7010342,42.8524278],[20.7013625,42.8469182],[20.7080536,42.842569],[20.7128899,42.8297872],[20.7355552,42.8214581],[20.7408348,42.8152688],[20.7491739,42.8092293],[20.7536737,42.8195752],[20.7450016,42.8401006],[20.7530672,42.8432763],[20.7366493,42.8594939],[20.7425445,42.8711928],[20.7450517,42.8739329],[20.7536276,42.8734603],[20.7575958,42.8802058],[20.7689547,42.8780851],[20.7839936,42.885861],[20.7916796,42.8834795],[20.791883,42.887458],[20.7967401,42.8910209],[20.7907486,42.9123933],[20.793844,42.9174563],[20.7840966,42.9227505],[20.7738791,42.9236963],[20.7684263,42.928288],[20.7695786,42.9337158],[20.7531106,42.9513676],[20.7534483,42.9610591],[20.7491281,42.9686922],[20.7313607,42.9812057],[20.7466458,42.9934151],[20.7110026,43.0166212],[20.6799959,43.0261583],[20.670326,43.0351678],[20.6542329,43.0331644],[20.6512658,43.020968],[20.6410347,43.0211241],[20.6371044,43.0151465],[20.6405108,43.0056484],[20.6299289,43.0082739],[20.6231797,43.0028622],[20.6169349,43.0021597],[20.6173976,43.0164798],[20.5906682,43.0161225],[20.5811969,43.0120754],[20.5807307,43.0010694],[20.5704757,42.9962732],[20.5675918,42.9837168],[20.5543535,42.9749359],[20.5564371,42.9686332],[20.5503584,42.9629486],[20.5417937,42.9636166],[20.5364141,42.9747009],[20.5287817,42.9750766],[20.5153063,42.9697228],[20.5142167,42.9648383],[20.5008744,42.956446],[20.4966472,42.944274],[20.4857928,42.933082],[20.4872569,42.9283584],[20.5007538,42.9173123],[20.5065748,42.904801],[20.5203206,42.8982025],[20.5211467,42.8933592],[20.5395338,42.8851133],[20.5714051,42.8913076],[20.6159162,42.8755446],[20.6208882,42.87096],[20.6164527,42.8668857],[20.6251972,42.8628622],[20.6299787,42.842694],[20.6381731,42.8404191],[20.6508671,42.8425967]]]}},{"type":"Feature","properties":{"name":"Zveçan"},"geometry":{"type":"Polygon","coordinates":[[[20.8531489,42.9055661],[20.8700249,42.9075305],[20.8804962,42.9147173],[20.8910019,42.9270083],[20.8991,42.950807],[20.818675,42.9847372],[20.8215895,42.99049],[20.8128544,42.9971255],[20.8043106,42.996915],[20.7984229,43.0012413],[20.8097717,43.0138934],[20.8064717,43.0211303],[20.7998465,43.0157049],[20.7903562,43.0169156],[20.7836412,43.0266274],[20.7647544,43.0277452],[20.7604044,43.0370114],[20.7615884,43.0405953],[20.7463267,43.0385587],[20.7414854,43.0429],[20.7206734,43.0283234],[20.711353,43.0380841],[20.6995206,43.0433629],[20.7046881,43.0455541],[20.7049335,43.0548259],[20.6918329,43.0560675],[20.6888596,43.0591954],[20.66996,43.0581655],[20.6711634,43.053835],[20.6659993,43.0476575],[20.6707978,43.0462417],[20.670326,43.0351678],[20.6791992,43.0266867],[20.6986484,43.0184064],[20.7110026,43.0166212],[20.7466458,42.9934151],[20.7313607,42.9812057],[20.7491281,42.9686922],[20.7534483,42.9610591],[20.7531106,42.9513676],[20.7695786,42.9337158],[20.76802,42.9289045],[20.7730142,42.9240984],[20.7926306,42.9186198],[20.7907486,42.9123933],[20.7935455,42.9077146],[20.8074065,42.9004159],[20.8274222,42.9015629],[20.8505984,42.89262],[20.8529917,42.8933108],[20.8517585,42.9028437],[20.843708,42.9096914],[20.8531489,42.9055661]]]}}]}